{"type":"FeatureCollection","features":[{"type":"Feature","id":"way-191457802","properties":{"id":"way-191457802","kind":"water","closed":true,"name":null,"src":"OpenStreetMap (ODbL)"},"geometry":{"type":"Polygon","coordinates":[[[76.979509,31.792577],[76.979536,31.792145],[76.979651,31.792162],[76.979963,31.791995],[76.980518,31.791598],[76.980447,31.791221],[76.980972,31.791157],[76.981094,31.790748],[76.981101,31.790282],[76.981004,31.790019],[76.980816,31.789614],[76.980531,31.788957],[76.980349,31.787903],[76.980233,31.786965],[76.980132,31.786757],[76.979989,31.786533],[76.979949,31.786061],[76.979942,31.785646],[76.979867,31.785122],[76.979847,31.784062],[76.979874,31.78378],[76.979942,31.783532],[76.980118,31.783486],[76.980403,31.783538],[76.980633,31.783555],[76.980985,31.783561],[76.981256,31.783486],[76.981595,31.783313],[76.982286,31.783048],[76.983065,31.78253],[76.983702,31.782115],[76.983994,31.781885],[76.984251,31.781476],[76.984441,31.780894],[76.984407,31.780457],[76.984191,31.779951],[76.984075,31.779679],[76.98375,31.779259],[76.983343,31.778786],[76.983086,31.778423],[76.982938,31.778132],[76.982799,31.777802],[76.982662,31.777439],[76.982559,31.777107],[76.982545,31.776843],[76.98249,31.776431],[76.982461,31.776063],[76.982408,31.775564],[76.982269,31.774979],[76.982135,31.774405],[76.982051,31.77392],[76.981946,31.77335],[76.98192,31.773026],[76.981862,31.772757],[76.981816,31.772395],[76.981829,31.772067],[76.981701,31.771788],[76.981522,31.771574],[76.981395,31.77147],[76.981256,31.771352],[76.981081,31.771169],[76.98087,31.770886],[76.980681,31.770613],[76.980262,31.770204],[76.979799,31.769855],[76.979371,31.769481],[76.979172,31.769328],[76.978865,31.769208],[76.978664,31.769177],[76.978446,31.769084],[76.978238,31.768967],[76.978039,31.768802],[76.977797,31.768642],[76.977541,31.76833],[76.977385,31.76811],[76.977315,31.767925],[76.977244,31.767591],[76.977756,31.767513],[76.977883,31.767906],[76.978067,31.768312],[76.978331,31.76866],[76.978547,31.7688],[76.979198,31.768982],[76.979488,31.769088],[76.979759,31.769326],[76.980389,31.769829],[76.980892,31.770279],[76.98139,31.770815],[76.981752,31.771175],[76.982039,31.771493],[76.98231,31.77188],[76.982609,31.772354],[76.982705,31.772774],[76.982679,31.773303],[76.982767,31.773945],[76.982811,31.774346],[76.982863,31.774684],[76.982985,31.775118],[76.983175,31.775503],[76.983194,31.775796],[76.983099,31.776298],[76.983065,31.776632],[76.983072,31.776858],[76.983122,31.777212],[76.983221,31.777537],[76.983436,31.778021],[76.983648,31.778403],[76.983808,31.778662],[76.984056,31.779],[76.984261,31.779349],[76.984429,31.779592],[76.984546,31.779843],[76.984608,31.779974],[76.984781,31.780301],[76.984927,31.780613],[76.984974,31.780803],[76.984913,31.781011],[76.98475,31.781255],[76.984408,31.781892],[76.984249,31.782151],[76.983971,31.782393],[76.983507,31.78271],[76.983043,31.783052],[76.982325,31.783455],[76.981881,31.783674],[76.981207,31.783887],[76.980854,31.783948],[76.980621,31.783942],[76.980309,31.783968],[76.98015,31.78402],[76.980089,31.784098],[76.980143,31.784532],[76.980228,31.785128],[76.980356,31.785967],[76.98038,31.786378],[76.980411,31.7866],[76.980512,31.786779],[76.980688,31.787164],[76.980827,31.787769],[76.980956,31.788535],[76.981136,31.78901],[76.98142,31.789667],[76.981542,31.790081],[76.981576,31.790389],[76.981552,31.7907],[76.981386,31.791207],[76.98098,31.791734],[76.9806,31.792232],[76.980113,31.792541],[76.979777,31.792627],[76.979499,31.792613],[76.979509,31.792577]]]}},{"type":"Feature","id":"way-191612042","properties":{"id":"way-191612042","kind":"water","closed":true,"name":null,"src":"OpenStreetMap (ODbL)"},"geometry":{"type":"Polygon","coordinates":[[[76.997004,31.783253],[76.997568,31.78322],[76.998123,31.783212],[76.998275,31.783244],[76.998439,31.783312],[76.998579,31.783358],[76.998738,31.78337],[76.998921,31.783362],[76.999184,31.783329],[76.999168,31.783241],[76.99892,31.783247],[76.998604,31.783214],[76.998377,31.783136],[76.998134,31.783036],[76.997802,31.783024],[76.997393,31.783057],[76.997033,31.783139],[76.997004,31.783253]]]}},{"type":"Feature","id":"way-592444625","properties":{"id":"way-592444625","kind":"wood","closed":true,"name":null,"src":"OpenStreetMap (ODbL)"},"geometry":{"type":"Polygon","coordinates":[[[76.976137,31.77433],[76.975107,31.773418],[76.973262,31.771959],[76.972833,31.771704],[76.97206,31.771631],[76.971288,31.771047],[76.97103,31.770682],[76.970901,31.770281],[76.970901,31.769806],[76.971889,31.766778],[76.971631,31.766413],[76.971631,31.765173],[76.971803,31.764552],[76.97206,31.764114],[76.972403,31.763786],[76.974206,31.763458],[76.97515,31.763056],[76.975434,31.762641],[76.975365,31.762108],[76.975365,31.761013],[76.97545,31.759444],[76.974592,31.758714],[76.97339,31.75813],[76.972919,31.757765],[76.972661,31.7574],[76.971717,31.754773],[76.971545,31.753605],[76.971416,31.751781],[76.970987,31.750978],[76.969743,31.749518],[76.968841,31.748934],[76.967468,31.748423],[76.965795,31.748423],[76.964722,31.748314],[76.96425,31.748095],[76.963863,31.74773],[76.963434,31.746818],[76.962876,31.745942],[76.962361,31.745905],[76.961546,31.746343],[76.961117,31.746489],[76.959186,31.746599],[76.958714,31.746708],[76.957684,31.747073],[76.956396,31.74773],[76.956053,31.748022],[76.955323,31.748861],[76.954808,31.749336],[76.954722,31.749774],[76.954207,31.749774],[76.953263,31.749299],[76.951375,31.747329],[76.951117,31.746927],[76.950989,31.746051],[76.950989,31.744701],[76.951075,31.744336],[76.950946,31.743168],[76.951547,31.740869],[76.951547,31.740431],[76.951375,31.740066],[76.951117,31.739701],[76.950087,31.739445],[76.949701,31.739154],[76.94953,31.738789],[76.949444,31.737949],[76.949057,31.737511],[76.947169,31.736453],[76.946611,31.736051],[76.944981,31.734591],[76.944981,31.733715],[76.945109,31.733314],[76.945496,31.732912],[76.946354,31.732511],[76.947083,31.732036],[76.948843,31.731197],[76.949487,31.730649],[76.949615,31.730248],[76.94953,31.729846],[76.948886,31.728386],[76.948757,31.727401],[76.947813,31.725794],[76.945324,31.723823],[76.943607,31.722911],[76.943006,31.722473],[76.94232,31.721779],[76.941805,31.72083],[76.941891,31.717983],[76.941633,31.716559],[76.941976,31.715391],[76.942492,31.715281],[76.943908,31.714588],[76.944766,31.713456],[76.945024,31.711156],[76.945024,31.709148],[76.945109,31.708746],[76.945581,31.707505],[76.945796,31.70714],[76.946139,31.706775],[76.946483,31.706483],[76.946869,31.706227],[76.947384,31.706191],[76.948457,31.706227],[76.9488,31.706483],[76.949015,31.706848],[76.949358,31.707651],[76.94983,31.709038],[76.949744,31.709513],[76.9488,31.710097],[76.948543,31.710499],[76.948285,31.712288],[76.948242,31.713967],[76.948113,31.714368],[76.947083,31.7155],[76.946526,31.717435],[76.946697,31.71791],[76.947083,31.718348],[76.947298,31.718749],[76.947856,31.720209],[76.9485,31.720976],[76.950603,31.723093],[76.95086,31.723495],[76.950517,31.724846],[76.950474,31.726379],[76.950817,31.726707],[76.952019,31.727547],[76.953263,31.728313],[76.955795,31.729153],[76.956911,31.729226],[76.957769,31.729627],[76.958714,31.730211],[76.959057,31.730467],[76.959529,31.730868],[76.960602,31.732036],[76.960859,31.732401],[76.961331,31.73335],[76.962104,31.734555],[76.962276,31.734993],[76.962447,31.736818],[76.962276,31.737292],[76.962018,31.737657],[76.961889,31.738643],[76.961932,31.739555],[76.962662,31.740212],[76.963563,31.740723],[76.963992,31.740869],[76.964936,31.74065],[76.968412,31.739227],[76.968799,31.738971],[76.969013,31.738606],[76.9697,31.738095],[76.9697,31.736343],[76.970043,31.735613],[76.970901,31.735175],[76.971416,31.734445],[76.971416,31.731963],[76.971245,31.731014],[76.969957,31.728532],[76.969442,31.727802],[76.968241,31.726415],[76.966867,31.724152],[76.966524,31.723276],[76.966181,31.719333],[76.964207,31.717143],[76.962147,31.715172],[76.962061,31.713419],[76.961117,31.711886],[76.960945,31.71101],[76.961117,31.710134],[76.961889,31.709622],[76.962748,31.70933],[76.964807,31.709184],[76.967039,31.709184],[76.967897,31.709403],[76.968756,31.711229],[76.969185,31.713127],[76.969185,31.714004],[76.969614,31.714807],[76.97073,31.716194],[76.971674,31.717727],[76.971846,31.718603],[76.971846,31.719479],[76.972532,31.722181],[76.973219,31.722911],[76.973991,31.723422],[76.97485,31.722984],[76.976051,31.720794],[76.976395,31.719918],[76.976395,31.718238],[76.97545,31.716705],[76.975279,31.715829],[76.975193,31.714077],[76.975021,31.7132],[76.974764,31.71247],[76.972961,31.709184],[76.97279,31.708235],[76.97279,31.706483],[76.973906,31.706483],[76.97485,31.706848],[76.975794,31.707359],[76.977167,31.708454],[76.97957,31.709988],[76.982403,31.711229],[76.983175,31.711667],[76.984119,31.712032],[76.985149,31.712178],[76.990042,31.713346],[76.9909,31.71393],[76.991758,31.714295],[76.993132,31.715099],[76.994676,31.716267],[76.997058,31.717253],[76.996972,31.718658],[76.99723,31.719498],[76.997638,31.720118],[76.997788,31.720301],[76.998024,31.720429],[76.99856,31.720593],[76.999011,31.72083],[76.999569,31.721286],[77.000213,31.722254],[77.000234,31.722455],[77.000492,31.72344],[77.000685,31.723586],[77.000942,31.723696],[77.001779,31.723951],[77.001929,31.724115],[77.001779,31.724973],[77.001607,31.72563],[77.0015,31.725831],[77.001328,31.725941],[77.001092,31.725995],[77.000878,31.725886],[77.000663,31.725758],[77.00047,31.725576],[77.00017,31.725174],[76.999698,31.724681],[76.998882,31.724061],[76.998646,31.724006],[76.997488,31.724042],[76.997294,31.724134],[76.996887,31.724407],[76.996458,31.724882],[76.996286,31.725028],[76.996028,31.725411],[76.995771,31.72605],[76.995449,31.726707],[76.99532,31.726908],[76.994998,31.727255],[76.994805,31.727382],[76.994612,31.727492],[76.993282,31.727966],[76.992788,31.728003],[76.991908,31.728404],[76.990986,31.729025],[76.990364,31.729627],[76.989956,31.73012],[76.989806,31.730394],[76.989763,31.730613],[76.989849,31.731835],[76.990127,31.732693],[76.990514,31.733551],[76.990836,31.734208],[76.991157,31.734664],[76.991351,31.735157],[76.991351,31.735376],[76.990578,31.73565],[76.990385,31.735778],[76.990149,31.735832],[76.990042,31.736325],[76.990836,31.736672],[76.991093,31.736763],[76.991694,31.736872],[76.992552,31.737183],[76.992767,31.73731],[76.992917,31.737475],[76.992917,31.737675],[76.992445,31.73815],[76.992059,31.738442],[76.99163,31.738898],[76.991115,31.739227],[76.9906,31.739245],[76.989377,31.739026],[76.989119,31.739738],[76.989076,31.739993],[76.98899,31.740413],[76.98899,31.741362],[76.988905,31.741562],[76.988411,31.742037],[76.988239,31.742183],[76.987789,31.74242],[76.987703,31.742621],[76.987853,31.742767],[76.988111,31.74284],[76.988625,31.743004],[76.988861,31.743132],[76.989291,31.743405],[76.989655,31.743716],[76.989934,31.743679],[76.99002,31.743168],[76.99002,31.742931],[76.989934,31.742475],[76.98987,31.742256],[76.98987,31.741763],[76.989934,31.741544],[76.990063,31.741343],[76.990321,31.741289],[76.990471,31.741453],[76.9906,31.74211],[76.990943,31.743296],[76.990943,31.743515],[76.990921,31.744281],[76.990106,31.744701],[76.988754,31.744847],[76.988261,31.744938],[76.987917,31.745285],[76.98781,31.746106],[76.98781,31.747],[76.987896,31.749062],[76.987724,31.749682],[76.987574,31.749865],[76.987209,31.750139],[76.986609,31.750504],[76.986329,31.750613],[76.986093,31.750668],[76.985836,31.750704],[76.9853,31.750686],[76.984827,31.750522],[76.984677,31.750376],[76.984634,31.750139],[76.984677,31.749901],[76.985321,31.748825],[76.985493,31.748661],[76.985643,31.74846],[76.985836,31.748332],[76.986394,31.748259],[76.986609,31.748113],[76.986651,31.746617],[76.986566,31.746398],[76.986394,31.74627],[76.986287,31.746453],[76.986222,31.746672],[76.986136,31.746872],[76.985836,31.747621],[76.985621,31.747675],[76.984892,31.747091],[76.983154,31.747256],[76.982918,31.74731],[76.982617,31.747347],[76.982424,31.747438],[76.982081,31.747694],[76.981544,31.748259],[76.981072,31.748204],[76.981201,31.748022],[76.981566,31.747055],[76.981523,31.746799],[76.980965,31.746124],[76.980772,31.745978],[76.980407,31.745613],[76.979506,31.745011],[76.978755,31.744683],[76.97854,31.74461],[76.977854,31.7443],[76.977167,31.744062],[76.976674,31.743989],[76.976094,31.743989],[76.975064,31.743533],[76.97515,31.743113],[76.975322,31.742949],[76.975558,31.742803],[76.975665,31.742566],[76.975472,31.74231],[76.974742,31.741672],[76.974614,31.741325],[76.974678,31.741088],[76.975923,31.740869],[76.977274,31.740869],[76.978283,31.741015],[76.978862,31.741124],[76.979334,31.741234],[76.979806,31.741289],[76.980407,31.74127],[76.980665,31.741197],[76.980665,31.740978],[76.980579,31.740102],[76.980579,31.739719],[76.980386,31.739518],[76.979077,31.739738],[76.97839,31.740011],[76.978176,31.740121],[76.977532,31.740449],[76.977232,31.740504],[76.976609,31.740504],[76.975515,31.740322],[76.974335,31.73992],[76.973476,31.739938],[76.973197,31.740011],[76.972983,31.740121],[76.972919,31.740358],[76.973176,31.740778],[76.973712,31.741416],[76.973691,31.741854],[76.973519,31.741873],[76.973262,31.741964],[76.972833,31.742329],[76.972489,31.74273],[76.972554,31.74346],[76.972704,31.743661],[76.972876,31.743843],[76.973669,31.744573],[76.973927,31.744975],[76.973991,31.745175],[76.974034,31.745376],[76.97412,31.745924],[76.974292,31.746672],[76.974292,31.746891],[76.974442,31.747219],[76.974528,31.747475],[76.974764,31.748131],[76.974914,31.748369],[76.975279,31.748825],[76.975622,31.749153],[76.975901,31.749354],[76.976223,31.749537],[76.976459,31.749609],[76.977339,31.749591],[76.978004,31.749792],[76.978605,31.750102],[76.978991,31.750522],[76.979055,31.750759],[76.978948,31.751398],[76.977982,31.75169],[76.976931,31.752565],[76.976309,31.753021],[76.975987,31.753332],[76.975729,31.753678],[76.975686,31.753879],[76.975686,31.754354],[76.975751,31.75481],[76.97588,31.755229],[76.976051,31.755612],[76.976438,31.756251],[76.977232,31.756981],[76.977875,31.757492],[76.978927,31.758586],[76.979184,31.758988],[76.979248,31.759189],[76.979313,31.759608],[76.979334,31.760247],[76.97957,31.761177],[76.979721,31.762035],[76.980214,31.763056],[76.980622,31.763622],[76.980836,31.764187],[76.980493,31.764461],[76.980042,31.764935],[76.979764,31.765027],[76.978669,31.765902],[76.977918,31.766067],[76.977596,31.766377],[76.97721,31.766924],[76.97706,31.767325],[76.97706,31.767544],[76.977124,31.768],[76.977596,31.768639],[76.978691,31.769478],[76.978905,31.769587],[76.979291,31.769861],[76.979742,31.770098],[76.980085,31.77039],[76.9806,31.770901],[76.981287,31.772597],[76.981394,31.773053],[76.980472,31.773509],[76.976137,31.77433]]]}},{"type":"Feature","id":"way-592444632","properties":{"id":"way-592444632","kind":"wood","closed":true,"name":null,"src":"OpenStreetMap (ODbL)"},"geometry":{"type":"Polygon","coordinates":[[[76.985021,31.760466],[76.985159,31.760664],[76.985836,31.76156],[76.986093,31.761998],[76.98648,31.762764],[76.987338,31.764662],[76.98751,31.765136],[76.98751,31.765574],[76.987209,31.766194],[76.986051,31.766267],[76.985579,31.76645],[76.984806,31.76707],[76.984591,31.767471],[76.984591,31.767982],[76.98472,31.76842],[76.985364,31.769077],[76.98575,31.769368],[76.986136,31.769624],[76.986651,31.769733],[76.987081,31.769624],[76.988068,31.768092],[76.98854,31.767982],[76.98987,31.767216],[76.992273,31.764625],[76.993174,31.763385],[76.993561,31.762801],[76.993947,31.762108],[76.994462,31.76094],[76.995234,31.758933],[76.99708,31.756817],[76.997552,31.756926],[76.997895,31.757218],[76.998153,31.757619],[76.998839,31.758824],[76.998882,31.759845],[76.99841,31.760758],[76.998281,31.761232],[76.998281,31.763129],[76.998668,31.764406],[76.998711,31.765318],[76.997938,31.766121],[76.99708,31.766705],[76.996736,31.76707],[76.996522,31.767471],[76.996479,31.76842],[76.996736,31.769843],[76.996779,31.771193],[76.996994,31.771558],[76.998024,31.771558],[77.0012,31.771047],[77.003989,31.770974],[77.007036,31.771266],[77.010984,31.771229],[77.013516,31.769587],[77.014074,31.769441],[77.014589,31.769405],[77.015147,31.769441],[77.015662,31.769551],[77.016563,31.769989],[77.018838,31.769879],[77.019353,31.769733],[77.020426,31.769514],[77.021542,31.769514],[77.022099,31.769587],[77.022657,31.769733],[77.023559,31.770098],[77.024159,31.770171],[77.024631,31.77039],[77.025232,31.770499],[77.02712,31.771083],[77.027593,31.771339],[77.027979,31.771667],[77.028408,31.771922],[77.02888,31.772032],[77.031112,31.772032],[77.031798,31.772068],[77.032871,31.772324],[77.034888,31.77298],[77.036734,31.772944],[77.037249,31.772762],[77.038922,31.772324],[77.040081,31.772105],[77.049394,31.772105],[77.050466,31.772287],[77.051453,31.77247],[77.052441,31.772907],[77.052913,31.77309],[77.053814,31.773637],[77.0542,31.774002],[77.054586,31.77433],[77.055745,31.775607],[77.05626,31.77579],[77.056775,31.775717],[77.05729,31.775534],[77.058234,31.774987],[77.058792,31.774257],[77.058835,31.773783],[77.059479,31.772907],[77.06377,31.772032],[77.066474,31.770135],[77.068276,31.768493],[77.071109,31.765209],[77.073126,31.763494],[77.075271,31.76364],[77.076301,31.763786],[77.077417,31.763859],[77.07819,31.763275],[77.078962,31.762764],[77.080421,31.761451],[77.081366,31.761013],[77.082396,31.760648],[77.083511,31.760502],[77.086773,31.760502],[77.087889,31.760575],[77.089004,31.760502],[77.090034,31.760137],[77.09115,31.759918],[77.093639,31.763421],[77.094669,31.763713],[77.095184,31.762983],[77.09527,31.761962],[77.095699,31.761159],[77.096472,31.760429],[77.097502,31.759845],[77.098188,31.759262],[77.099132,31.758605],[77.099991,31.758094],[77.101192,31.758094],[77.102051,31.758459],[77.103167,31.758313],[77.103596,31.757437],[77.104711,31.757291],[77.105656,31.757437],[77.106686,31.75751],[77.107286,31.756853],[77.107973,31.756269],[77.109175,31.755904],[77.110205,31.758459],[77.110033,31.759262],[77.10969,31.760137],[77.109261,31.761013],[77.108831,31.76167],[77.108316,31.7624],[77.107544,31.762983],[77.106771,31.763421],[77.104626,31.765027],[77.103939,31.765611],[77.101536,31.768165],[77.100506,31.769405],[77.099733,31.769989],[77.098017,31.770719],[77.097158,31.771156],[77.095356,31.771813],[77.09424,31.771886],[77.09321,31.771886],[77.085399,31.775826],[77.078447,31.779803],[77.078061,31.779584],[77.077718,31.779256],[77.07716,31.778489],[77.076859,31.778125],[77.076087,31.777358],[77.075701,31.777103],[77.074113,31.77714],[77.073684,31.776921],[77.072654,31.776519],[77.072182,31.776446],[77.071667,31.776519],[77.071195,31.776665],[77.071066,31.777067],[77.071066,31.777979],[77.071152,31.778416],[77.071109,31.778854],[77.070637,31.778964],[77.070165,31.778964],[77.068834,31.77838],[77.067804,31.778416],[77.067461,31.778672],[77.067032,31.778891],[77.06686,31.779292],[77.066817,31.780168],[77.066688,31.780642],[77.066388,31.781444],[77.066131,31.781846],[77.065701,31.781663],[77.065358,31.781371],[77.064672,31.780605],[77.064242,31.780313],[77.063856,31.781153],[77.063341,31.782466],[77.063084,31.782904],[77.062612,31.783013],[77.062011,31.782174],[77.06171,31.781882],[77.060981,31.781335],[77.059951,31.780824],[77.059522,31.780532],[77.059093,31.777286],[77.05862,31.777213],[77.058063,31.777286],[77.05759,31.777541],[77.056775,31.778198],[77.056303,31.778526],[77.055917,31.778818],[77.055531,31.77962],[77.056003,31.782101],[77.056174,31.782502],[77.056475,31.782904],[77.056861,31.783232],[77.057333,31.783487],[77.057891,31.783962],[77.058277,31.784326],[77.058449,31.784691],[77.058535,31.785092],[77.058191,31.785384],[77.054029,31.78553],[77.052999,31.78502],[77.052741,31.784582],[77.051367,31.784044],[77.050381,31.783779],[77.049952,31.783451],[77.050123,31.783013],[77.050681,31.782174],[77.051325,31.781408],[77.05184,31.779547],[77.052784,31.77911],[77.052269,31.778781],[77.051368,31.778453],[77.050381,31.778234],[77.049737,31.778088],[77.04875,31.778088],[77.047892,31.778708],[77.047119,31.77973],[77.046561,31.780241],[77.046218,31.780532],[77.047248,31.783159],[77.047334,31.783633],[77.047334,31.785494],[77.047205,31.785931],[77.046819,31.786114],[77.046384,31.786268],[77.045274,31.786588],[77.044372,31.786953],[77.043986,31.787172],[77.042999,31.787281],[77.042184,31.78677],[77.04051,31.785494],[77.040038,31.785311],[77.03948,31.785348],[77.037764,31.785348],[77.036819,31.785275],[77.036004,31.784983],[77.036219,31.784582],[77.036991,31.783998],[77.037764,31.783305],[77.038236,31.783086],[77.038793,31.782977],[77.040467,31.782685],[77.040939,31.781846],[77.041154,31.781444],[77.041497,31.781116],[77.041969,31.780897],[77.042527,31.780824],[77.043128,31.780824],[77.043643,31.780642],[77.044158,31.780386],[77.044587,31.780095],[77.045102,31.779292],[77.045445,31.778927],[77.045918,31.778672],[77.047462,31.778271],[77.04742,31.777358],[77.045402,31.77714],[77.044716,31.77765],[77.043858,31.778161],[77.042055,31.778891],[77.041025,31.778891],[77.039823,31.778672],[77.038708,31.778526],[77.037763,31.778088],[77.036991,31.777431],[77.036219,31.776994],[77.035274,31.776629],[77.034502,31.776118],[77.034073,31.775316],[77.033815,31.774513],[77.032957,31.773929],[77.031927,31.774002],[77.031154,31.774586],[77.030725,31.775316],[77.030725,31.776264],[77.031498,31.776775],[77.035103,31.77838],[77.035961,31.778891],[77.036133,31.779766],[77.03433,31.780642],[77.033644,31.781298],[77.0327,31.781444],[77.031755,31.781226],[77.030811,31.780569],[77.029867,31.779985],[77.028923,31.780058],[77.029266,31.780861],[77.03021,31.781298],[77.030897,31.781955],[77.030811,31.782831],[77.029781,31.782831],[77.028837,31.783123],[77.028065,31.783633],[77.027035,31.783706],[77.02609,31.783852],[77.025146,31.784144],[77.023344,31.783706],[77.0224,31.783998],[77.021713,31.784582],[77.021027,31.786406],[77.020426,31.787281],[77.019482,31.787573],[77.01828,31.786114],[77.017851,31.785311],[77.019052,31.783925],[77.020168,31.783779],[77.021027,31.783341],[77.020941,31.782466],[77.019997,31.781882],[77.02034,31.78108],[77.021027,31.78035],[77.021112,31.779474],[77.020769,31.778672],[77.020168,31.777723],[77.019739,31.776063],[77.019761,31.77537],[77.019932,31.775188],[77.020812,31.774896],[77.021027,31.774786],[77.021349,31.77444],[77.021885,31.773965],[77.023001,31.773911],[77.023516,31.773728],[77.024288,31.773108],[77.024653,31.772689],[77.025061,31.772306],[77.025211,31.77205],[77.025168,31.771831],[77.02491,31.77174],[77.02461,31.771704],[77.024374,31.771722],[77.023795,31.772032],[77.023172,31.772378],[77.022808,31.772524],[77.022507,31.772561],[77.021713,31.772834],[77.02152,31.77309],[77.021327,31.773491],[77.021177,31.773747],[77.020855,31.773984],[77.020039,31.774385],[77.019782,31.774385],[77.019396,31.77413],[77.019353,31.773491],[77.019503,31.773053],[77.019889,31.772707],[77.020083,31.77247],[77.020254,31.771977],[77.020254,31.771175],[77.020039,31.771065],[77.019761,31.771083],[77.018902,31.771266],[77.018387,31.771266],[77.017636,31.771466],[77.016971,31.771594],[77.016413,31.771795],[77.016242,31.771941],[77.015598,31.773236],[77.01519,31.773619],[77.014976,31.773655],[77.01386,31.774257],[77.013431,31.774714],[77.012572,31.775133],[77.012165,31.775607],[77.011821,31.776173],[77.011671,31.776592],[77.011735,31.777632],[77.01195,31.777742],[77.012422,31.777322],[77.013001,31.776939],[77.01328,31.776902],[77.01328,31.777778],[77.012444,31.778927],[77.011907,31.77931],[77.011757,31.779456],[77.011156,31.780587],[77.010963,31.780897],[77.010684,31.781171],[77.010169,31.781609],[77.00989,31.781572],[77.009268,31.781207],[77.008903,31.780879],[77.008646,31.780751],[77.00856,31.780514],[77.008517,31.779785],[77.008603,31.779347],[77.008882,31.778982],[77.009225,31.778343],[77.009246,31.777377],[77.008989,31.777377],[77.008774,31.77745],[77.008581,31.777596],[77.008173,31.777815],[77.0068,31.778453],[77.00592,31.779401],[77.004783,31.780222],[77.00429,31.77993],[77.003431,31.780003],[77.003324,31.779785],[77.00326,31.779529],[77.00268,31.778508],[77.002573,31.778143],[77.002573,31.777887],[77.0015,31.777377],[77.001157,31.776538],[77.001007,31.776337],[77.000406,31.775097],[77.00017,31.774458],[76.999977,31.774148],[76.999526,31.773856],[76.999032,31.773947],[76.998603,31.774257],[76.998282,31.77475],[76.998067,31.775151],[76.99796,31.776793],[76.998217,31.77796],[76.998432,31.778398],[76.998818,31.778818],[76.999462,31.779055],[76.999762,31.779055],[77.000105,31.779693],[77.000084,31.779912],[76.999934,31.780058],[76.999354,31.78004],[76.998174,31.779894],[76.996608,31.779438],[76.993861,31.779639],[76.992638,31.779164],[76.991866,31.779183],[76.991329,31.779219],[76.990707,31.77931],[76.990149,31.779566],[76.989613,31.780095],[76.989419,31.780222],[76.989183,31.780332],[76.988926,31.780386],[76.988046,31.779876],[76.98796,31.778927],[76.988218,31.778289],[76.988368,31.778106],[76.988518,31.777924],[76.988926,31.777669],[76.989655,31.777358],[76.989999,31.777048],[76.990127,31.776848],[76.989591,31.776063],[76.989183,31.77579],[76.988711,31.775607],[76.988153,31.775516],[76.987402,31.775534],[76.986973,31.775005],[76.986716,31.774276],[76.986716,31.774057],[76.986115,31.773199],[76.985419,31.772216],[76.985385,31.772169],[76.984591,31.771029],[76.984184,31.770737],[76.983905,31.770499],[76.983454,31.770226],[76.983175,31.770007],[76.982896,31.769879],[76.981072,31.769642],[76.980085,31.769332],[76.979806,31.769186],[76.979488,31.769088],[76.978776,31.768548],[76.978261,31.767727],[76.978176,31.767526],[76.97809,31.767088],[76.97824,31.766869],[76.97854,31.766869],[76.978755,31.76676],[76.97927,31.766249],[76.980514,31.765501],[76.981201,31.76499],[76.981523,31.764844],[76.982918,31.76426],[76.983712,31.764169],[76.983991,31.764114],[76.984205,31.763987],[76.984506,31.763604],[76.984591,31.76333],[76.984591,31.763093],[76.983733,31.76187],[76.982961,31.761578],[76.982124,31.761578],[76.981566,31.761414],[76.981738,31.761268],[76.982231,31.761122],[76.982403,31.760958],[76.982725,31.760192],[76.982746,31.759955],[76.985021,31.760466]]]}},{"type":"Feature","id":"way-761449988","properties":{"id":"way-761449988","kind":"grass","closed":true,"name":"Village Square","src":"OpenStreetMap (ODbL)"},"geometry":{"type":"Polygon","coordinates":[[[76.994313,31.780909],[76.994354,31.780879],[76.994402,31.780855],[76.994454,31.78084],[76.994509,31.780833],[76.994564,31.780836],[76.994617,31.780847],[76.994668,31.780867],[76.994712,31.780894],[76.99475,31.780928],[76.99478,31.780967],[76.9948,31.781011],[76.99481,31.781058],[76.99481,31.781105],[76.994799,31.781151],[76.994778,31.781195],[76.994747,31.781234],[76.994709,31.781268],[76.994663,31.781294],[76.994612,31.781313],[76.994558,31.781324],[76.994503,31.781325],[76.994444,31.781316],[76.994388,31.781298],[76.994339,31.78127],[76.994297,31.781234],[76.994264,31.781192],[76.994243,31.781144],[76.994233,31.781094],[76.994235,31.781044],[76.99425,31.780995],[76.994276,31.780949],[76.994313,31.780909]]]}},{"type":"Feature","id":"way-1095948982","properties":{"id":"way-1095948982","kind":"wood","closed":true,"name":null,"src":"OpenStreetMap (ODbL)"},"geometry":{"type":"Polygon","coordinates":[[[76.971435,31.832289],[76.971417,31.832686],[76.971481,31.832904],[76.97176,31.833324],[76.97206,31.833688],[76.972146,31.833925],[76.972361,31.83604],[76.972275,31.836478],[76.972361,31.836915],[76.972489,31.837316],[76.97309,31.838045],[76.973691,31.838629],[76.97545,31.839686],[76.976008,31.839832],[76.976566,31.839832],[76.977124,31.839722],[76.978498,31.838847],[76.979012,31.838847],[76.979313,31.839175],[76.979699,31.839431],[76.980257,31.83954],[76.980858,31.83954],[76.982403,31.839467],[76.983089,31.839358],[76.983561,31.839102],[76.984935,31.838227],[76.985536,31.837972],[76.986136,31.837936],[76.986565,31.838155],[76.987081,31.838155],[76.987166,31.838592],[76.987123,31.83903],[76.986995,31.839431],[76.98678,31.839795],[76.98648,31.840123],[76.986136,31.840415],[76.98575,31.840707],[76.983089,31.842201],[76.982703,31.842457],[76.981974,31.84304],[76.980686,31.843842],[76.979699,31.843805],[76.97927,31.84355],[76.978669,31.842748],[76.978454,31.842311],[76.978154,31.841983],[76.977682,31.841764],[76.977167,31.841764],[76.976738,31.841837],[76.976309,31.842019],[76.975922,31.842238],[76.975579,31.84253],[76.975021,31.843113],[76.974678,31.843404],[76.974163,31.843404],[76.973133,31.843186],[76.97176,31.843915],[76.971674,31.844316],[76.971717,31.844753],[76.972103,31.845628],[76.972361,31.846066],[76.972318,31.84654],[76.972103,31.846904],[76.971631,31.847086],[76.970129,31.847487],[76.969571,31.84767],[76.969142,31.847852],[76.96867,31.847925],[76.967211,31.847159],[76.967168,31.847597],[76.966825,31.849529],[76.966696,31.851206],[76.966524,31.852008],[76.966352,31.852372],[76.966095,31.852773],[76.965451,31.853575],[76.965194,31.853976],[76.965065,31.854377],[76.964641,31.854733],[76.964309,31.85502],[76.964089,31.855238],[76.96403,31.855297],[76.963788,31.855421],[76.963568,31.855462],[76.963268,31.855448],[76.963086,31.855389],[76.962957,31.85522],[76.96271,31.854956],[76.962474,31.854568],[76.96219,31.854291],[76.961519,31.854222],[76.961047,31.854313],[76.960774,31.854468],[76.960596,31.854614],[76.960194,31.854947],[76.960049,31.855093],[76.959819,31.855348],[76.959497,31.855657],[76.95932,31.855762],[76.959025,31.856077],[76.95874,31.856414],[76.958596,31.856728],[76.958596,31.856942],[76.958649,31.857188],[76.95852,31.857498],[76.958467,31.857671],[76.95873,31.857963],[76.958955,31.858104],[76.959304,31.858273],[76.959647,31.858551],[76.959577,31.858852],[76.959271,31.859088],[76.958992,31.859198],[76.958671,31.859239],[76.958574,31.859234],[76.958317,31.859252],[76.958161,31.859116],[76.958038,31.858852],[76.958032,31.858478],[76.958107,31.858245],[76.958016,31.857936],[76.957936,31.857671],[76.957684,31.857544],[76.957287,31.857548],[76.956857,31.85774],[76.956466,31.857981],[76.956042,31.858177],[76.955742,31.858232],[76.955323,31.858104],[76.954953,31.85799],[76.954701,31.857813],[76.954417,31.857485],[76.954229,31.857298],[76.953869,31.857115],[76.953596,31.856965],[76.953253,31.856819],[76.952957,31.856756],[76.952646,31.856664],[76.952571,31.856619],[76.9524,31.856537],[76.952287,31.856377],[76.952164,31.856213],[76.951718,31.85609],[76.9516,31.856104],[76.951273,31.85614],[76.951107,31.856122],[76.950806,31.856004],[76.950721,31.855908],[76.950511,31.855835],[76.950216,31.855822],[76.94975,31.855904],[76.949524,31.855981],[76.949347,31.855867],[76.949513,31.85563],[76.949675,31.855411],[76.949868,31.855115],[76.949959,31.854787],[76.949868,31.854682],[76.949519,31.854487],[76.949417,31.854177],[76.949358,31.853858],[76.949374,31.853575],[76.94946,31.853507],[76.949562,31.853557],[76.949787,31.854086],[76.950077,31.854181],[76.950404,31.854172],[76.950865,31.854163],[76.951091,31.854167],[76.951214,31.854181],[76.951445,31.854063],[76.951509,31.853899],[76.951327,31.853694],[76.951209,31.853552],[76.951101,31.853438],[76.951209,31.853315],[76.951353,31.853265],[76.951391,31.853188],[76.952298,31.850841],[76.952791,31.846139],[76.952791,31.845264],[76.953649,31.842858],[76.954679,31.841181],[76.956654,31.838337],[76.957083,31.837462],[76.957512,31.833889],[76.957512,31.82893],[76.957684,31.826305],[76.958027,31.824628],[76.959228,31.823242],[76.959658,31.822513],[76.959915,31.821783],[76.960087,31.820908],[76.960945,31.818429],[76.96146,31.817699],[76.962147,31.817043],[76.963863,31.816022],[76.964378,31.815292],[76.964636,31.81449],[76.964722,31.813615],[76.965237,31.81201],[76.966181,31.807707],[76.966953,31.806029],[76.967211,31.805154],[76.967382,31.804351],[76.967382,31.803403],[76.966867,31.802601],[76.966438,31.801653],[76.965837,31.799975],[76.965752,31.7991],[76.965752,31.796181],[76.965923,31.795014],[76.966009,31.785968],[76.966438,31.784217],[76.967297,31.782466],[76.967468,31.781663],[76.967211,31.780788],[76.966696,31.780058],[76.964979,31.776921],[76.965666,31.77568],[76.965752,31.775243],[76.965752,31.774732],[76.965966,31.773783],[76.966739,31.77298],[76.967168,31.772762],[76.967726,31.772835],[76.968112,31.773126],[76.97073,31.775826],[76.971459,31.776629],[76.972017,31.77703],[76.973777,31.777103],[76.974335,31.776957],[76.974764,31.776702],[76.976137,31.77433],[76.980472,31.773509],[76.98103,31.774367],[76.981201,31.775005],[76.98148,31.775626],[76.981673,31.776282],[76.981738,31.776738],[76.981823,31.776921],[76.98206,31.777286],[76.981759,31.778781],[76.981544,31.779146],[76.981544,31.779584],[76.981587,31.780022],[76.982017,31.781226],[76.982102,31.782867],[76.980643,31.782831],[76.980128,31.782867],[76.979656,31.783013],[76.979484,31.783378],[76.979442,31.783779],[76.979442,31.784655],[76.979527,31.78553],[76.979699,31.786479],[76.98,31.7875],[76.980349,31.787903],[76.980128,31.788449],[76.980514,31.790345],[76.980514,31.790783],[76.980447,31.791221],[76.980128,31.791622],[76.979963,31.791995],[76.979656,31.791987],[76.97957,31.791586],[76.979141,31.790126],[76.97897,31.789725],[76.9787,31.789387],[76.978369,31.789105],[76.978068,31.78874],[76.977768,31.788449],[76.976781,31.788412],[76.975794,31.788449],[76.975279,31.788521],[76.974463,31.788959],[76.974163,31.789288],[76.973948,31.789689],[76.973691,31.790528],[76.973691,31.791111],[76.973777,31.791513],[76.974335,31.792789],[76.974807,31.793738],[76.97485,31.794613],[76.974721,31.795051],[76.974206,31.795124],[76.972876,31.794504],[76.971846,31.794467],[76.971373,31.794686],[76.970901,31.795051],[76.970944,31.795525],[76.97103,31.795963],[76.971202,31.796364],[76.971288,31.796802],[76.97176,31.797896],[76.972103,31.798188],[76.972403,31.798552],[76.973133,31.799209],[76.974077,31.799647],[76.974549,31.799792],[76.975107,31.799902],[76.975622,31.799975],[76.976824,31.800048],[76.977339,31.800157],[76.977811,31.800303],[76.978068,31.800668],[76.978154,31.801105],[76.978154,31.802017],[76.977854,31.803367],[76.977382,31.804789],[76.977296,31.80519],[76.977081,31.805591],[76.977038,31.806613],[76.976652,31.811172],[76.976652,31.811573],[76.976523,31.811937],[76.975579,31.812338],[76.974678,31.812594],[76.97412,31.81263],[76.973562,31.812813],[76.972833,31.813469],[76.972575,31.81387],[76.972403,31.814271],[76.972318,31.814672],[76.972275,31.815147],[76.972275,31.817116],[76.972468,31.818775],[76.972468,31.819778],[76.972403,31.819978],[76.972296,31.820161],[76.972125,31.820325],[76.971502,31.820689],[76.970794,31.820981],[76.970451,31.821036],[76.970172,31.821036],[76.96852,31.821546],[76.968294,31.821496],[76.967967,31.821601],[76.967457,31.82192],[76.967259,31.822216],[76.967018,31.822841],[76.966739,31.823278],[76.966589,31.823588],[76.966589,31.823807],[76.966342,31.824158],[76.966272,31.824395],[76.966229,31.824646],[76.96617,31.824938],[76.966106,31.825453],[76.965939,31.825758],[76.965929,31.826168],[76.965939,31.826446],[76.965998,31.826706],[76.966014,31.826806],[76.96602,31.827125],[76.966031,31.827308],[76.966149,31.82754],[76.966331,31.827768],[76.96654,31.827973],[76.966599,31.82831],[76.966299,31.82821],[76.965902,31.82811],[76.965398,31.828155],[76.965097,31.828611],[76.964947,31.828994],[76.964915,31.829422],[76.965172,31.82986],[76.965419,31.830033],[76.965913,31.830079],[76.966524,31.830143],[76.967039,31.830179],[76.967415,31.830361],[76.967575,31.830507],[76.968434,31.830598],[76.968804,31.830708],[76.968976,31.831008],[76.969045,31.8311],[76.969126,31.831191],[76.96926,31.831314],[76.969442,31.831441],[76.969496,31.831555],[76.969367,31.83192],[76.969083,31.83207],[76.968804,31.831988],[76.9683,31.831792],[76.968031,31.831706],[76.967592,31.831729],[76.96757,31.831924],[76.967602,31.832111],[76.967651,31.832604],[76.967613,31.833005],[76.967688,31.833292],[76.96779,31.833515],[76.967795,31.833793],[76.967973,31.833925],[76.968091,31.834062],[76.968042,31.834304],[76.968048,31.834509],[76.968235,31.834791],[76.968402,31.835069],[76.968863,31.835169],[76.969249,31.835238],[76.969571,31.835119],[76.969973,31.834864],[76.970236,31.834686],[76.970778,31.834354],[76.970853,31.834285],[76.970912,31.833734],[76.970928,31.833465],[76.970757,31.833128],[76.970649,31.8329],[76.970537,31.832718],[76.970488,31.832604],[76.970757,31.832134],[76.970896,31.832116],[76.971036,31.832143],[76.971175,31.832184],[76.971435,31.832289]]]}}]}