{"type":"FeatureCollection","features":[{"type":"Feature","id":"way-191346910","properties":{"id":"way-191346910","cls":"secondary","name":"Mandi-Bajaura Road","width_m":6.5,"surface":"asphalt","stairs":false,"accessible":true,"bridge":false,"tunnel":false,"src":"OpenStreetMap (ODbL)"},"geometry":{"type":"LineString","coordinates":[[77.014716,31.798769],[77.014565,31.798725],[77.014083,31.798682],[77.013901,31.798635],[77.013712,31.798473],[77.013547,31.798299],[77.013303,31.798237],[77.012974,31.798078],[77.012523,31.797984],[77.012307,31.797928],[77.012268,31.797856],[77.012371,31.797763],[77.012558,31.797719],[77.012715,31.797673],[77.012851,31.797582],[77.012925,31.797416],[77.012951,31.797083],[77.012882,31.796796],[77.012775,31.796441],[77.012659,31.796104],[77.012227,31.795755],[77.012065,31.795558],[77.01188,31.795228],[77.011626,31.794899],[77.011367,31.794695],[77.011304,31.794521],[77.011195,31.794393],[77.011075,31.794296],[77.01091,31.794237],[77.010663,31.794174],[77.010355,31.793997],[77.009962,31.793717],[77.009597,31.793582],[77.009375,31.793406],[77.009223,31.793325],[77.009075,31.79328],[77.008914,31.793354],[77.00879,31.793402],[77.008713,31.793392],[77.008649,31.793336],[77.008614,31.793129],[77.008529,31.792964],[77.00847,31.79282],[77.008406,31.79271],[77.008293,31.792657],[77.008137,31.792651],[77.007978,31.792656],[77.007841,31.792668],[77.00775,31.792642],[77.007693,31.792548],[77.007694,31.792472],[77.007813,31.792403],[77.008124,31.792133],[77.008144,31.791994],[77.008069,31.791857],[77.007856,31.791751],[77.00771,31.791757],[77.007609,31.791768],[77.007526,31.791755],[77.007486,31.79166],[77.007528,31.79159],[77.007821,31.791238],[77.007926,31.791069],[77.007947,31.790928],[77.007829,31.790686],[77.007774,31.790471],[77.0077,31.790322],[77.00763,31.790275],[77.007496,31.790266],[77.007404,31.790259],[77.007348,31.790185],[77.007383,31.790082],[77.007536,31.789944],[77.007604,31.789824],[77.007562,31.789466],[77.007486,31.789077],[77.007341,31.788867],[77.007136,31.788637],[77.006629,31.78824],[77.00656,31.788143],[77.006608,31.788064],[77.006698,31.788053],[77.007081,31.788119],[77.007572,31.788186],[77.008135,31.788466],[77.00822,31.788554],[77.00826,31.788623],[77.008295,31.788713],[77.008322,31.78874],[77.008353,31.78875],[77.008391,31.788745],[77.008421,31.788732],[77.008445,31.788708],[77.00845,31.788671],[77.008443,31.788578],[77.008427,31.788381],[77.008507,31.788136],[77.008577,31.787931],[77.008603,31.787757],[77.00856,31.787606],[77.00844,31.787479],[77.008131,31.787329],[77.007897,31.787167],[77.00781,31.786968],[77.007687,31.786692],[77.007615,31.786566],[77.007498,31.786479],[77.007367,31.786419],[77.007235,31.786364],[77.007046,31.786398],[77.006936,31.786451],[77.006818,31.786463],[77.00668,31.786399],[77.006642,31.786347],[77.006649,31.786168],[77.00658,31.78598],[77.006371,31.785677],[77.00617,31.785578],[77.006057,31.785443],[77.005861,31.785077],[77.005806,31.784861],[77.005911,31.784621],[77.005952,31.784385],[77.005879,31.784149],[77.005635,31.783393],[77.005485,31.783106],[77.005343,31.783011],[77.005089,31.783019],[77.004754,31.783084],[77.004526,31.783176],[77.00418,31.783403],[77.003839,31.783717],[77.003534,31.78382],[77.003063,31.783938],[77.002502,31.783979],[77.002186,31.784109],[77.001977,31.784185],[77.00176,31.784191],[77.001443,31.784145],[77.001125,31.784059],[77.000889,31.784063],[77.000616,31.784046],[77.00022,31.784094],[76.999854,31.784185],[76.998894,31.784311],[76.998715,31.78425],[76.998342,31.784123],[76.997833,31.784173],[76.997559,31.784035],[76.997419,31.784001],[76.997299,31.783999],[76.997151,31.784082],[76.997032,31.78426],[76.996909,31.78432],[76.996768,31.784346],[76.996666,31.784347],[76.996563,31.784287],[76.996362,31.784127],[76.99616,31.78386],[76.99612,31.783849],[76.996065,31.783849],[76.995984,31.783878],[76.995871,31.783996],[76.99574,31.784136],[76.99571,31.784257],[76.995652,31.784396],[76.995467,31.784555],[76.99533,31.784616],[76.995257,31.784677],[76.995131,31.784715],[76.994974,31.784685],[76.994868,31.784613],[76.994868,31.78452],[76.994985,31.784261],[76.994919,31.784074],[76.994905,31.783886],[76.994955,31.783737],[76.995071,31.783536],[76.995052,31.783329],[76.995031,31.783163],[76.994916,31.783029],[76.994754,31.782902],[76.994557,31.782791],[76.994296,31.782756],[76.994082,31.782708],[76.993902,31.782622],[76.993706,31.782606],[76.993502,31.782546],[76.993271,31.782344],[76.992988,31.782036],[76.992827,31.781969],[76.992704,31.781942],[76.992667,31.78189]]}},{"type":"Feature","id":"way-191349260","properties":{"id":"way-191349260","cls":"tertiary","name":null,"width_m":6.0,"surface":"paved","stairs":false,"accessible":true,"bridge":true,"tunnel":false,"src":"OpenStreetMap (ODbL)"},"geometry":{"type":"LineString","coordinates":[[76.984692,31.779736],[76.984546,31.779843],[76.984225,31.779937],[76.984191,31.779951],[76.983939,31.780064]]}},{"type":"Feature","id":"way-191612008","properties":{"id":"way-191612008","cls":"unclassified","name":"ABANDONED BRIDGE","width_m":4.5,"surface":"paved","stairs":false,"accessible":true,"bridge":true,"tunnel":false,"src":"OpenStreetMap (ODbL)"},"geometry":{"type":"LineString","coordinates":[[76.997886,31.783307],[76.997889,31.782969]]}},{"type":"Feature","id":"way-191612009","properties":{"id":"way-191612009","cls":"unclassified","name":"Salgi-Arnehar Road","width_m":4.5,"surface":"asphalt","stairs":false,"accessible":true,"bridge":false,"tunnel":false,"src":"OpenStreetMap (ODbL)"},"geometry":{"type":"LineString","coordinates":[[76.998003,31.7829],[76.997959,31.782883],[76.997866,31.782891],[76.997778,31.782899],[76.997497,31.782905],[76.997253,31.782871],[76.997029,31.782808],[76.996813,31.782746],[76.996669,31.782718],[76.996514,31.782675],[76.9964,31.782617],[76.996289,31.782531],[76.996198,31.782441],[76.996123,31.782353],[76.996035,31.782286],[76.99594,31.782234],[76.995785,31.782179],[76.995714,31.782159],[76.995647,31.782126],[76.995593,31.782091],[76.995546,31.782052],[76.995498,31.782015],[76.995424,31.78199],[76.995343,31.781986],[76.995257,31.781991],[76.995137,31.782022],[76.994996,31.782059],[76.994909,31.782061],[76.994828,31.782044],[76.994746,31.781994],[76.994694,31.781932],[76.994613,31.781893],[76.994519,31.781876],[76.994442,31.781858],[76.994386,31.781837],[76.994343,31.781814],[76.994293,31.781766],[76.994268,31.781723],[76.994166,31.781688],[76.993979,31.781578],[76.993904,31.781542],[76.993864,31.781495],[76.993834,31.781445],[76.993804,31.781408],[76.993738,31.781336],[76.99365,31.781284],[76.993584,31.781133],[76.993474,31.780985],[76.993431,31.780778],[76.993448,31.780683],[76.993445,31.7806],[76.99345,31.780575],[76.99346,31.78053],[76.993449,31.780464],[76.993498,31.780356],[76.99358,31.780224],[76.993731,31.780082],[76.993897,31.780036],[76.994141,31.780068],[76.994513,31.780107],[76.994541,31.780071],[76.99458,31.780049],[76.99463,31.780043],[76.994701,31.780045],[76.994753,31.780043],[76.994803,31.780033],[76.994833,31.780008],[76.994855,31.779979],[76.994867,31.779947],[76.99487,31.779904],[76.994853,31.779767],[76.994847,31.779642],[76.994809,31.779566],[76.994747,31.779514],[76.994695,31.779473],[76.994691,31.779434],[76.994709,31.779401],[76.994744,31.779388],[76.994785,31.779393],[76.994853,31.779413],[76.994975,31.779461],[76.995149,31.779519],[76.995209,31.77954],[76.995257,31.779564],[76.99531,31.779612],[76.995369,31.779709],[76.995407,31.779752],[76.995452,31.779774],[76.995508,31.779786],[76.995621,31.779794],[76.995733,31.779791],[76.995828,31.779802],[76.995951,31.779825],[76.996057,31.779843],[76.996212,31.779847],[76.996325,31.779842],[76.996439,31.779826],[76.996562,31.779785],[76.996685,31.779725],[76.996781,31.779684],[76.996854,31.779681],[76.996903,31.779697],[76.996964,31.779746],[76.997035,31.77985],[76.997101,31.779985],[76.997147,31.780044],[76.997215,31.78008],[76.997388,31.780128],[76.997555,31.780173],[76.997625,31.78019],[76.997701,31.780193],[76.99778,31.780185],[76.99785,31.780184],[76.997946,31.7802],[76.99802,31.780228],[76.998058,31.780271],[76.998107,31.780348],[76.998187,31.780422],[76.9983,31.780489],[76.998455,31.78055],[76.998553,31.780569],[76.998706,31.780597],[76.998998,31.780656],[76.999178,31.780686],[76.999408,31.780716],[76.999598,31.780745],[76.999685,31.780756],[76.999762,31.780738],[76.999925,31.780688],[77.000049,31.780653],[77.000151,31.780609],[77.00025,31.78054],[77.00034,31.780493],[77.000407,31.780488],[77.000472,31.780501],[77.000526,31.780528],[77.000577,31.780584],[77.000604,31.780676],[77.000629,31.780734],[77.000667,31.780758],[77.000708,31.780757],[77.000757,31.780735],[77.000803,31.780698],[77.000874,31.78062],[77.000933,31.780562],[77.00104,31.780504],[77.00113,31.780457],[77.001216,31.78039],[77.001298,31.780295],[77.001387,31.780191],[77.001476,31.780096],[77.001549,31.780076],[77.001636,31.780033],[77.001698,31.779982],[77.001795,31.779973],[77.001875,31.779965],[77.001945,31.779935],[77.001981,31.779902],[77.002006,31.779841],[77.002024,31.779745],[77.002017,31.779645],[77.002014,31.779555],[77.002047,31.77948],[77.002099,31.779427],[77.00218,31.779368],[77.002246,31.779298],[77.002275,31.779227],[77.002282,31.779126],[77.00224,31.779016],[77.002213,31.778956],[77.002203,31.778911],[77.002213,31.778854],[77.002257,31.778774],[77.002288,31.778673],[77.002232,31.778508]]}},{"type":"Feature","id":"way-191612010","properties":{"id":"way-191612010","cls":"unclassified","name":null,"width_m":4.5,"surface":"concrete","stairs":false,"accessible":true,"bridge":true,"tunnel":false,"src":"OpenStreetMap (ODbL)"},"geometry":{"type":"LineString","coordinates":[[76.998036,31.783321],[76.998003,31.7829]]}},{"type":"Feature","id":"way-191612011","properties":{"id":"way-191612011","cls":"track","name":null,"width_m":3.0,"surface":"unpaved","stairs":false,"accessible":true,"bridge":false,"tunnel":false,"src":"OpenStreetMap (ODbL)"},"geometry":{"type":"LineString","coordinates":[[76.997889,31.782969],[76.997866,31.782891]]}},{"type":"Feature","id":"way-191612012","properties":{"id":"way-191612012","cls":"unclassified","name":null,"width_m":4.5,"surface":"paved","stairs":false,"accessible":true,"bridge":false,"tunnel":false,"src":"OpenStreetMap (ODbL)"},"geometry":{"type":"LineString","coordinates":[[77.003166,31.783348],[77.003198,31.783306],[77.003195,31.783256],[77.003156,31.783172],[77.003024,31.782892],[77.002983,31.782845],[77.002945,31.782823],[77.002897,31.782813],[77.002836,31.782814],[77.002728,31.782864],[77.00236,31.783051],[77.002096,31.78323],[77.001816,31.783457],[77.001659,31.783566],[77.001557,31.783617],[77.001432,31.783657],[77.001291,31.783662],[77.001204,31.78365],[77.001129,31.783622],[77.001052,31.783593],[77.000985,31.783571],[77.000921,31.78357],[77.000747,31.783611],[77.000535,31.783643],[77.000433,31.783638],[77.000319,31.783674],[77.000181,31.783698],[76.999859,31.783736],[76.999728,31.783736],[76.999658,31.783773],[76.999569,31.783812],[76.999455,31.783829],[76.999304,31.783817],[76.9992,31.783791],[76.999124,31.783749],[76.999051,31.783673],[76.999002,31.783625],[76.998944,31.7836],[76.998818,31.783574],[76.99859,31.783557],[76.998415,31.783517],[76.998228,31.783447],[76.998093,31.783396],[76.998053,31.78336],[76.998036,31.783321]]}},{"type":"Feature","id":"way-191612013","properties":{"id":"way-191612013","cls":"track","name":null,"width_m":3.0,"surface":"unpaved","stairs":false,"accessible":true,"bridge":false,"tunnel":false,"src":"OpenStreetMap (ODbL)"},"geometry":{"type":"LineString","coordinates":[[76.998093,31.783396],[76.997993,31.78336],[76.997933,31.783343],[76.9979,31.783327],[76.997886,31.783307]]}},{"type":"Feature","id":"way-191612704","properties":{"id":"way-191612704","cls":"unclassified","name":null,"width_m":4.5,"surface":"unpaved","stairs":false,"accessible":true,"bridge":false,"tunnel":false,"src":"OpenStreetMap (ODbL)"},"geometry":{"type":"LineString","coordinates":[[76.974885,31.752033],[76.974996,31.752092],[76.975154,31.752175],[76.97537,31.752307],[76.975469,31.7525],[76.975553,31.752778],[76.975533,31.753018],[76.975459,31.753211],[76.975403,31.753456],[76.975355,31.753712],[76.975323,31.754014],[76.975232,31.754124],[76.975135,31.75422],[76.975144,31.754331],[76.975189,31.75451],[76.975239,31.754658],[76.975294,31.754872],[76.975335,31.755078],[76.975347,31.755295],[76.975433,31.755484],[76.975482,31.755637],[76.975535,31.755772],[76.975533,31.755932],[76.975509,31.756125],[76.975763,31.756438],[76.975956,31.756761],[76.976078,31.757063],[76.976264,31.75717],[76.976738,31.75761],[76.977043,31.757907],[76.977328,31.758033],[76.977514,31.7582],[76.977788,31.75827],[76.978083,31.75852],[76.978418,31.758675],[76.978672,31.758854],[76.978784,31.759162],[76.978811,31.759453],[76.978692,31.759761],[76.978546,31.760063],[76.978414,31.760285],[76.978381,31.760547],[76.978364,31.760826],[76.978313,31.761194],[76.978262,31.761416],[76.978333,31.761618],[76.978509,31.761825],[76.978736,31.761957],[76.978895,31.762072],[76.978919,31.762188],[76.978922,31.762337],[76.979017,31.762507],[76.979027,31.762778],[76.979078,31.76302],[76.979295,31.763313],[76.979627,31.763552],[76.97987,31.763734],[76.979985,31.763958],[76.979945,31.764174],[76.979806,31.764482],[76.979484,31.764948],[76.979217,31.765066],[76.978844,31.765268],[76.978533,31.765432],[76.978177,31.765659],[76.977951,31.765815],[76.977751,31.765855],[76.97771,31.765803],[76.97746,31.765749],[76.977162,31.765861],[76.976691,31.766178],[76.976457,31.766592],[76.976315,31.76701],[76.976234,31.76732],[76.97639,31.767663],[76.976505,31.767957],[76.976559,31.768178],[76.9766,31.768342],[76.976725,31.768391],[76.976915,31.768567],[76.976979,31.768763],[76.976925,31.768967],[76.976989,31.769073],[76.977128,31.769076],[76.977287,31.769094],[76.977595,31.769312],[76.978144,31.769617],[76.978323,31.76973],[76.978631,31.769865],[76.978909,31.770064],[76.979115,31.770228],[76.979396,31.770429],[76.979495,31.77059],[76.97961,31.770766],[76.979782,31.770826],[76.980033,31.770965],[76.980317,31.771252],[76.980544,31.77152],[76.980649,31.771765],[76.980818,31.772228],[76.980984,31.772614],[76.981103,31.772962],[76.981309,31.773259],[76.981408,31.773552],[76.981469,31.773788],[76.981614,31.774002],[76.981746,31.774226],[76.981915,31.774652],[76.982251,31.775636],[76.98226,31.775675],[76.982315,31.775893],[76.982332,31.776215],[76.982386,31.776497],[76.982419,31.776715]]}},{"type":"Feature","id":"way-209825235","properties":{"id":"way-209825235","cls":"service","name":"IIT mandi Kamand Campus Road","width_m":3.5,"surface":"unpaved","stairs":false,"accessible":true,"bridge":false,"tunnel":false,"src":"OpenStreetMap (ODbL)"},"geometry":{"type":"LineString","coordinates":[[76.986367,31.775207],[76.986326,31.775178],[76.986254,31.775142],[76.986153,31.775111],[76.986086,31.775066],[76.985976,31.77502],[76.985665,31.774969],[76.985119,31.774912],[76.984892,31.774855],[76.984499,31.774826],[76.984305,31.77479],[76.984186,31.774766],[76.984008,31.774663],[76.983891,31.774549],[76.983819,31.774397],[76.983781,31.774265],[76.983793,31.774112],[76.983766,31.773912],[76.98374,31.773603],[76.983752,31.77334],[76.983788,31.773135],[76.983925,31.772897],[76.983587,31.772498],[76.983221,31.772346],[76.982874,31.77178],[76.982649,31.771317],[76.98248,31.770974],[76.982386,31.770535],[76.982536,31.770479],[76.982874,31.770814],[76.983146,31.77083],[76.983407,31.771081]]}},{"type":"Feature","id":"way-209825236","properties":{"id":"way-209825236","cls":"tertiary","name":"Road to IIT Mandi Kamand Campus","width_m":6.0,"surface":"paved","stairs":false,"accessible":true,"bridge":false,"tunnel":false,"src":"OpenStreetMap (ODbL)"},"geometry":{"type":"LineString","coordinates":[[76.988689,31.775926],[76.988625,31.77586],[76.988445,31.775843],[76.988144,31.775765],[76.987992,31.775719],[76.987809,31.775742],[76.98766,31.775788],[76.987531,31.775774],[76.987453,31.775719],[76.987291,31.77567],[76.987081,31.775627],[76.986912,31.775641],[76.98678,31.775662],[76.986709,31.775665],[76.98658,31.77561],[76.986427,31.775483],[76.986367,31.775345],[76.986367,31.775207]]}},{"type":"Feature","id":"way-209825237","properties":{"id":"way-209825237","cls":"tertiary","name":"Road to IIT Mandi Kamand Campus","width_m":6.0,"surface":"paved","stairs":false,"accessible":true,"bridge":true,"tunnel":false,"src":"OpenStreetMap (ODbL)"},"geometry":{"type":"LineString","coordinates":[[76.988632,31.776263],[76.988689,31.775926]]}},{"type":"Feature","id":"way-209825238","properties":{"id":"way-209825238","cls":"tertiary","name":"Road to IIT Mandi Kamand Campus","width_m":6.0,"surface":"paved","stairs":false,"accessible":true,"bridge":false,"tunnel":false,"src":"OpenStreetMap (ODbL)"},"geometry":{"type":"LineString","coordinates":[[76.987106,31.776522],[76.987279,31.776518],[76.987447,31.776473],[76.987582,31.776419],[76.987734,31.776422],[76.987944,31.776401],[76.988114,31.776315],[76.98832,31.776246],[76.988567,31.776266],[76.988632,31.776263]]}},{"type":"Feature","id":"way-209825239","properties":{"id":"way-209825239","cls":"tertiary","name":null,"width_m":6.0,"surface":"paved","stairs":false,"accessible":true,"bridge":false,"tunnel":false,"src":"OpenStreetMap (ODbL)"},"geometry":{"type":"LineString","coordinates":[[76.986367,31.775207],[76.986448,31.774977],[76.986431,31.774645],[76.986353,31.774404],[76.986245,31.774113],[76.986018,31.773831],[76.985876,31.773691],[76.985682,31.773504],[76.985315,31.77315],[76.985168,31.773036],[76.985024,31.772917],[76.984993,31.772879],[76.984904,31.772772],[76.984787,31.772579],[76.984728,31.772395],[76.984675,31.772275],[76.984567,31.772181],[76.984376,31.772052],[76.984232,31.77194],[76.984088,31.771813],[76.983935,31.771606],[76.9837,31.771407],[76.983548,31.771226],[76.983407,31.771081],[76.983333,31.770886],[76.983263,31.770715],[76.983164,31.770499],[76.98304,31.770332],[76.982866,31.770226],[76.982664,31.770073],[76.982551,31.769949],[76.982435,31.769833],[76.982407,31.769756],[76.982332,31.769617],[76.982204,31.769515],[76.981968,31.769375],[76.981545,31.769088],[76.98124,31.768907],[76.980844,31.768701],[76.980675,31.768612],[76.980494,31.768557],[76.980284,31.768536],[76.979838,31.768412],[76.979392,31.7683],[76.979141,31.768136],[76.979028,31.767973],[76.978995,31.767713],[76.978938,31.767361],[76.978997,31.767187],[76.97915,31.767045],[76.979583,31.766672],[76.979933,31.766503],[76.980204,31.766373],[76.98044,31.76628],[76.980663,31.766227],[76.980939,31.765905],[76.981122,31.765687],[76.981218,31.765531],[76.981371,31.765522],[76.981577,31.765531],[76.98176,31.765479],[76.982002,31.765444],[76.982242,31.76549],[76.982392,31.7655],[76.982539,31.765614],[76.982659,31.765745],[76.982747,31.765775],[76.982827,31.765718],[76.982913,31.765584],[76.983038,31.765575],[76.98325,31.76568],[76.983324,31.765711],[76.983473,31.765679],[76.983593,31.765633],[76.983736,31.765615],[76.983842,31.76562],[76.983946,31.765572],[76.984084,31.765492],[76.984377,31.765402],[76.984567,31.765333],[76.98478,31.765401],[76.984955,31.765391],[76.985127,31.765348],[76.985369,31.765284],[76.985496,31.765202],[76.985618,31.765107],[76.98572,31.765034],[76.98586,31.765022],[76.985989,31.765061],[76.986138,31.76512],[76.986255,31.765129],[76.986333,31.765082],[76.986317,31.765014],[76.986309,31.76475],[76.986373,31.764555],[76.986473,31.764326],[76.986495,31.764202],[76.986546,31.764118],[76.986627,31.764049],[76.986639,31.763894],[76.98662,31.763721],[76.986617,31.763612],[76.986498,31.763515],[76.98639,31.76343],[76.98629,31.763295],[76.986268,31.763189],[76.986209,31.763081],[76.986021,31.762999],[76.985862,31.762871],[76.985777,31.762725],[76.985752,31.762557],[76.985728,31.7624],[76.985733,31.762276],[76.98572,31.762233],[76.985588,31.762122],[76.985515,31.762013],[76.985456,31.761875],[76.985385,31.761784],[76.985117,31.761581],[76.984922,31.761415],[76.984799,31.761339],[76.984696,31.761212],[76.984555,31.761116],[76.984372,31.761015],[76.984269,31.760946],[76.984208,31.760834],[76.984137,31.760759],[76.983998,31.7607],[76.983726,31.760566],[76.98358,31.760418],[76.983516,31.760343],[76.983532,31.760274],[76.983665,31.76027],[76.983812,31.76028],[76.983903,31.760232],[76.984013,31.760195],[76.984147,31.760154],[76.984272,31.760169],[76.984443,31.760297],[76.98458,31.760432],[76.984728,31.760555],[76.984917,31.760655],[76.985159,31.760664],[76.985374,31.760657],[76.985554,31.760791],[76.985669,31.760848],[76.985849,31.760854],[76.985992,31.760897],[76.986152,31.760952],[76.986295,31.760968],[76.986339,31.76094],[76.986614,31.760799],[76.986786,31.76076],[76.986913,31.76067],[76.987118,31.760507],[76.987345,31.760457],[76.987533,31.760503],[76.987812,31.760606],[76.988002,31.76065],[76.988181,31.760772],[76.988324,31.76093],[76.988508,31.761158],[76.988557,31.761405],[76.988681,31.761752],[76.988791,31.76199],[76.98896,31.762052],[76.989109,31.762131],[76.989221,31.762349],[76.989448,31.762534],[76.98959,31.762597],[76.989696,31.762557],[76.98983,31.762469],[76.990052,31.762413],[76.990198,31.762433],[76.990314,31.76256],[76.990469,31.762652],[76.990606,31.762637],[76.990724,31.762607],[76.990875,31.762658],[76.990978,31.7628],[76.991159,31.763078],[76.991327,31.763203],[76.991428,31.763189],[76.991415,31.763078],[76.991381,31.762987],[76.991384,31.762904],[76.991467,31.762868],[76.991579,31.762773],[76.991635,31.762596],[76.991626,31.762426],[76.991669,31.762327]]}},{"type":"Feature","id":"way-209825240","properties":{"id":"way-209825240","cls":"path","name":null,"width_m":1.5,"surface":"wood","stairs":false,"accessible":true,"bridge":false,"tunnel":false,"src":"OpenStreetMap (ODbL)"},"geometry":{"type":"LineString","coordinates":[[76.982419,31.776715],[76.983199,31.776649]]}},{"type":"Feature","id":"way-209825729","properties":{"id":"way-209825729","cls":"unclassified","name":"road in Kamand","width_m":4.5,"surface":"paved","stairs":false,"accessible":true,"bridge":false,"tunnel":false,"src":"OpenStreetMap (ODbL)"},"geometry":{"type":"LineString","coordinates":[[76.984755,31.779694],[76.984848,31.780005],[76.985051,31.780417],[76.985214,31.780664],[76.985264,31.780863],[76.985129,31.781145],[76.985054,31.781338],[76.984949,31.781626],[76.984753,31.781864],[76.984574,31.782146],[76.98455,31.782388],[76.98452,31.782598],[76.984428,31.782653],[76.984259,31.78263],[76.98412,31.782607],[76.983832,31.782751],[76.983673,31.782972],[76.983524,31.783139],[76.983212,31.783335],[76.982979,31.783557],[76.982583,31.783689],[76.982312,31.783856],[76.982061,31.783922],[76.981868,31.783971],[76.981621,31.783937],[76.981486,31.783891],[76.981289,31.784032],[76.981022,31.784184],[76.980733,31.784197],[76.980589,31.784156],[76.980453,31.784128],[76.980371,31.784219],[76.980383,31.784476],[76.980501,31.784712],[76.980575,31.785025],[76.980642,31.785267],[76.980675,31.785705],[76.980675,31.785927],[76.98075,31.786177],[76.980754,31.78636],[76.980838,31.78658],[76.980841,31.786779],[76.980941,31.78704],[76.980891,31.787199],[76.980977,31.787306],[76.981166,31.787416],[76.981195,31.787616],[76.981292,31.787739]]}},{"type":"Feature","id":"way-223700090","properties":{"id":"way-223700090","cls":"unclassified","name":null,"width_m":4.5,"surface":"paved","stairs":false,"accessible":true,"bridge":false,"tunnel":false,"src":"OpenStreetMap (ODbL)"},"geometry":{"type":"LineString","coordinates":[[76.983956,31.774318],[76.984186,31.774766]]}},{"type":"Feature","id":"way-477716685","properties":{"id":"way-477716685","cls":"path","name":"Way To Mess","width_m":1.5,"surface":"paved","stairs":false,"accessible":true,"bridge":false,"tunnel":false,"src":"OpenStreetMap (ODbL)"},"geometry":{"type":"LineString","coordinates":[[76.985876,31.773691],[76.985249,31.773416]]}},{"type":"Feature","id":"way-761379546","properties":{"id":"way-761379546","cls":"secondary","name":"Mandi-Bajaura Road","width_m":6.5,"surface":"asphalt","stairs":false,"accessible":true,"bridge":false,"tunnel":false,"src":"OpenStreetMap (ODbL)"},"geometry":{"type":"LineString","coordinates":[[76.992565,31.781684],[76.992541,31.781458],[76.99247,31.781364],[76.99236,31.781304],[76.992238,31.781231],[76.992176,31.781083],[76.992164,31.780908],[76.992059,31.780771],[76.991993,31.780652],[76.992122,31.780217],[76.99205,31.78007],[76.991965,31.780033],[76.991842,31.780026],[76.991694,31.780053],[76.991398,31.78033],[76.990743,31.780612],[76.990131,31.780732],[76.989874,31.780845],[76.989615,31.780864],[76.989247,31.78103],[76.988931,31.781106],[76.988731,31.781022],[76.988553,31.781027],[76.988309,31.781033],[76.9881,31.780926],[76.987865,31.780827],[76.987763,31.780661],[76.987644,31.78054],[76.98751,31.780373],[76.987283,31.780174],[76.987059,31.779999],[76.986886,31.779652],[76.986712,31.779159],[76.986669,31.778816],[76.9867,31.77859],[76.986751,31.778415],[76.986974,31.778231],[76.987255,31.778091],[76.987502,31.777843],[76.987526,31.777663],[76.987626,31.777557],[76.987992,31.777335],[76.988283,31.777123],[76.988543,31.777055],[76.988797,31.777027],[76.988898,31.776887],[76.988823,31.776745],[76.988732,31.776639],[76.988569,31.776615],[76.988208,31.776578],[76.987565,31.776626],[76.987106,31.776522],[76.986188,31.776319],[76.985392,31.776218],[76.984318,31.775929],[76.983673,31.775882],[76.983489,31.775841],[76.983358,31.775835]]}},{"type":"Feature","id":"way-761379547","properties":{"id":"way-761379547","cls":"secondary","name":null,"width_m":6.5,"surface":"paved","stairs":false,"accessible":true,"bridge":true,"tunnel":false,"src":"OpenStreetMap (ODbL)"},"geometry":{"type":"LineString","coordinates":[[76.992667,31.78189],[76.992565,31.781684]]}},{"type":"Feature","id":"way-761449989","properties":{"id":"way-761449989","cls":"footway","name":null,"width_m":1.6,"surface":"unpaved","stairs":false,"accessible":true,"bridge":false,"tunnel":false,"src":"OpenStreetMap (ODbL)"},"geometry":{"type":"LineString","coordinates":[[76.996576,31.780993],[76.996561,31.781032]]}},{"type":"Feature","id":"way-761449990","properties":{"id":"way-761449990","cls":"steps","name":null,"width_m":1.4,"surface":"unpaved","stairs":true,"accessible":false,"bridge":false,"tunnel":false,"src":"OpenStreetMap (ODbL)"},"geometry":{"type":"LineString","coordinates":[[76.996451,31.780926],[76.99651,31.780965],[76.996576,31.780993]]}},{"type":"Feature","id":"way-761449992","properties":{"id":"way-761449992","cls":"service","name":null,"width_m":3.5,"surface":"paved","stairs":false,"accessible":true,"bridge":false,"tunnel":false,"src":"OpenStreetMap (ODbL)"},"geometry":{"type":"LineString","coordinates":[[76.994268,31.781723],[76.994246,31.781497],[76.994316,31.781288]]}},{"type":"Feature","id":"way-761449993","properties":{"id":"way-761449993","cls":"footway","name":null,"width_m":1.6,"surface":"unpaved","stairs":false,"accessible":true,"bridge":false,"tunnel":false,"src":"OpenStreetMap (ODbL)"},"geometry":{"type":"LineString","coordinates":[[76.996038,31.781275],[76.996275,31.780957],[76.996372,31.780811],[76.9964,31.780652],[76.996437,31.780658],[76.996406,31.780748],[76.996406,31.780854],[76.996451,31.780926]]}},{"type":"Feature","id":"way-761449994","properties":{"id":"way-761449994","cls":"footway","name":null,"width_m":1.6,"surface":"unpaved","stairs":false,"accessible":true,"bridge":false,"tunnel":false,"src":"OpenStreetMap (ODbL)"},"geometry":{"type":"LineString","coordinates":[[76.995815,31.781457],[76.995936,31.781211]]}},{"type":"Feature","id":"way-761449995","properties":{"id":"way-761449995","cls":"footway","name":null,"width_m":1.6,"surface":"unpaved","stairs":false,"accessible":true,"bridge":false,"tunnel":false,"src":"OpenStreetMap (ODbL)"},"geometry":{"type":"LineString","coordinates":[[76.995767,31.780787],[76.996076,31.780893],[76.996275,31.780957],[76.996561,31.781032],[76.996717,31.781073],[76.997219,31.781197],[76.997336,31.781246],[76.998213,31.781598]]}},{"type":"Feature","id":"way-761449996","properties":{"id":"way-761449996","cls":"footway","name":null,"width_m":1.6,"surface":"unpaved","stairs":false,"accessible":true,"bridge":false,"tunnel":false,"src":"OpenStreetMap (ODbL)"},"geometry":{"type":"LineString","coordinates":[[76.995334,31.78088],[76.995711,31.781047],[76.995936,31.781211],[76.996038,31.781275],[76.996568,31.781492],[76.99677,31.781508],[76.996945,31.781502],[76.99711,31.781534],[76.997336,31.781246]]}},{"type":"Feature","id":"way-761449997","properties":{"id":"way-761449997","cls":"steps","name":null,"width_m":1.4,"surface":"unpaved","stairs":true,"accessible":false,"bridge":false,"tunnel":false,"src":"OpenStreetMap (ODbL)"},"geometry":{"type":"LineString","coordinates":[[76.995951,31.78052],[76.99592,31.780565]]}},{"type":"Feature","id":"way-761449998","properties":{"id":"way-761449998","cls":"footway","name":null,"width_m":1.6,"surface":"unpaved","stairs":false,"accessible":true,"bridge":false,"tunnel":false,"src":"OpenStreetMap (ODbL)"},"geometry":{"type":"LineString","coordinates":[[76.99596,31.780475],[76.995951,31.78052]]}},{"type":"Feature","id":"way-761449999","properties":{"id":"way-761449999","cls":"footway","name":null,"width_m":1.6,"surface":"unpaved","stairs":false,"accessible":true,"bridge":false,"tunnel":false,"src":"OpenStreetMap (ODbL)"},"geometry":{"type":"LineString","coordinates":[[76.9952,31.781063],[76.994845,31.781031]]}},{"type":"Feature","id":"way-761450000","properties":{"id":"way-761450000","cls":"steps","name":null,"width_m":1.4,"surface":"unpaved","stairs":true,"accessible":false,"bridge":false,"tunnel":false,"src":"OpenStreetMap (ODbL)"},"geometry":{"type":"LineString","coordinates":[[76.995213,31.780973],[76.9952,31.781063]]}},{"type":"Feature","id":"way-761450001","properties":{"id":"way-761450001","cls":"footway","name":null,"width_m":1.6,"surface":"unpaved","stairs":false,"accessible":true,"bridge":false,"tunnel":false,"src":"OpenStreetMap (ODbL)"},"geometry":{"type":"LineString","coordinates":[[76.9952,31.781063],[76.995188,31.781377],[76.995256,31.780989]]}},{"type":"Feature","id":"way-761450002","properties":{"id":"way-761450002","cls":"footway","name":null,"width_m":1.6,"surface":"unpaved","stairs":false,"accessible":true,"bridge":false,"tunnel":false,"src":"OpenStreetMap (ODbL)"},"geometry":{"type":"LineString","coordinates":[[76.99592,31.780565],[76.995767,31.780787],[76.995552,31.780795],[76.995334,31.78088],[76.995256,31.780989],[76.995213,31.780973]]}},{"type":"Feature","id":"way-761450003","properties":{"id":"way-761450003","cls":"service","name":null,"width_m":3.5,"surface":"paved","stairs":false,"accessible":true,"bridge":false,"tunnel":false,"src":"OpenStreetMap (ODbL)"},"geometry":{"type":"LineString","coordinates":[[76.994437,31.780809],[76.994382,31.780826],[76.994332,31.780852],[76.994287,31.780885],[76.994251,31.780925],[76.994223,31.780969],[76.994206,31.781017],[76.994199,31.781067],[76.994202,31.781117],[76.994216,31.781166],[76.99424,31.781211],[76.994274,31.781252],[76.994316,31.781288],[76.994366,31.781317],[76.994421,31.781338],[76.99448,31.781349],[76.994541,31.781352],[76.994601,31.781344],[76.994658,31.781327],[76.994711,31.781302],[76.994757,31.781268],[76.994795,31.781228],[76.994824,31.781183],[76.994842,31.781134],[76.994849,31.781083],[76.994845,31.781031],[76.99483,31.780981],[76.994804,31.780934],[76.994769,31.780893],[76.994724,31.780857],[76.994673,31.780829],[76.994617,31.78081],[76.994558,31.7808],[76.994497,31.7808],[76.994437,31.780809]]}},{"type":"Feature","id":"way-761450004","properties":{"id":"way-761450004","cls":"residential","name":null,"width_m":4.0,"surface":"paved","stairs":false,"accessible":true,"bridge":false,"tunnel":false,"src":"OpenStreetMap (ODbL)"},"geometry":{"type":"LineString","coordinates":[[76.994513,31.780107],[76.994624,31.780213],[76.994979,31.780387],[76.995207,31.780456],[76.995583,31.780466],[76.99596,31.780475],[76.996745,31.780562],[76.997419,31.780712],[76.997974,31.780936],[76.998523,31.781185],[76.999462,31.781518],[77.000048,31.781764],[77.000399,31.781949]]}},{"type":"Feature","id":"way-761450005","properties":{"id":"way-761450005","cls":"footway","name":null,"width_m":1.6,"surface":"unpaved","stairs":false,"accessible":true,"bridge":false,"tunnel":false,"src":"OpenStreetMap (ODbL)"},"geometry":{"type":"LineString","coordinates":[[76.994141,31.780068],[76.994263,31.780406],[76.994247,31.780509],[76.994437,31.780809]]}},{"type":"Feature","id":"way-761450006","properties":{"id":"way-761450006","cls":"residential","name":null,"width_m":4.0,"surface":"paved","stairs":false,"accessible":true,"bridge":false,"tunnel":false,"src":"OpenStreetMap (ODbL)"},"geometry":{"type":"LineString","coordinates":[[76.999209,31.78213],[76.999073,31.782107],[76.998721,31.782048],[76.998097,31.781918],[76.99744,31.781873],[76.996911,31.781825],[76.996667,31.781781],[76.996278,31.781732],[76.99615,31.781637],[76.996002,31.781611],[76.995949,31.781592],[76.995908,31.781521],[76.995843,31.781483],[76.995815,31.781457],[76.995719,31.781451],[76.995626,31.781448],[76.995414,31.781379],[76.995271,31.781371],[76.995188,31.781377],[76.995061,31.781412],[76.994944,31.781459],[76.994843,31.781544],[76.99475,31.781626],[76.994442,31.781735],[76.994293,31.781766]]}},{"type":"Feature","id":"way-762330812","properties":{"id":"way-762330812","cls":"footway","name":null,"width_m":1.6,"surface":"unpaved","stairs":false,"accessible":true,"bridge":false,"tunnel":false,"src":"OpenStreetMap (ODbL)"},"geometry":{"type":"LineString","coordinates":[[76.998625,31.781832],[76.998599,31.781831],[76.998602,31.781727],[76.99866,31.781665],[76.998733,31.781607],[76.998834,31.781593],[76.998932,31.781597],[76.999026,31.781639],[76.99909,31.781699],[76.999113,31.781763],[76.999125,31.781811],[76.999184,31.781825]]}},{"type":"Feature","id":"way-762330813","properties":{"id":"way-762330813","cls":"steps","name":null,"width_m":1.4,"surface":"unpaved","stairs":true,"accessible":false,"bridge":false,"tunnel":false,"src":"OpenStreetMap (ODbL)"},"geometry":{"type":"LineString","coordinates":[[76.999073,31.782107],[76.999184,31.781825]]}},{"type":"Feature","id":"way-762330815","properties":{"id":"way-762330815","cls":"footway","name":null,"width_m":1.6,"surface":"unpaved","stairs":false,"accessible":true,"bridge":false,"tunnel":false,"src":"OpenStreetMap (ODbL)"},"geometry":{"type":"LineString","coordinates":[[76.995583,31.780466],[76.995589,31.780602],[76.995172,31.780711],[76.995334,31.78088]]}},{"type":"Feature","id":"way-762330816","properties":{"id":"way-762330816","cls":"steps","name":null,"width_m":1.4,"surface":"unpaved","stairs":true,"accessible":false,"bridge":false,"tunnel":false,"src":"OpenStreetMap (ODbL)"},"geometry":{"type":"LineString","coordinates":[[76.998523,31.781185],[76.998213,31.781598]]}},{"type":"Feature","id":"way-762330817","properties":{"id":"way-762330817","cls":"steps","name":null,"width_m":1.4,"surface":"unpaved","stairs":true,"accessible":false,"bridge":false,"tunnel":false,"src":"OpenStreetMap (ODbL)"},"geometry":{"type":"LineString","coordinates":[[76.997419,31.780712],[76.997219,31.781197]]}},{"type":"Feature","id":"way-794865202","properties":{"id":"way-794865202","cls":"path","name":"Way to Pradeep's farm from C5","width_m":1.5,"surface":"ground","stairs":false,"accessible":true,"bridge":false,"tunnel":false,"src":"OpenStreetMap (ODbL)"},"geometry":{"type":"LineString","coordinates":[[76.98516,31.76873],[76.98517,31.76876],[76.98518,31.7688],[76.98519,31.76883],[76.98519,31.76886],[76.98518,31.76889],[76.98518,31.76892],[76.98518,31.76897],[76.98519,31.769],[76.98519,31.76903],[76.9852,31.76906],[76.98521,31.76909],[76.9852,31.76912],[76.98521,31.76915],[76.98526,31.76919],[76.9853,31.76921],[76.98533,31.76925],[76.9853,31.76926],[76.98526,31.76927],[76.98521,31.76927],[76.98519,31.76923],[76.98517,31.7692],[76.98513,31.76918],[76.98508,31.76918],[76.98504,31.76918],[76.98501,31.76915],[76.98497,31.76914],[76.98492,31.76914],[76.98487,31.76915],[76.98481,31.76914],[76.98477,31.76911],[76.98473,31.7691],[76.98468,31.76909],[76.98473,31.76911],[76.98468,31.76911],[76.98472,31.76915],[76.98472,31.76919],[76.98472,31.76923],[76.98475,31.76925],[76.98476,31.76929],[76.9847,31.76929],[76.98467,31.76928],[76.98464,31.76925],[76.98462,31.76922],[76.98459,31.76921],[76.98456,31.76919],[76.98458,31.76925],[76.98456,31.76928],[76.98457,31.76924],[76.98454,31.76922],[76.98451,31.76919],[76.98449,31.76916],[76.98448,31.76912],[76.98448,31.76907],[76.98447,31.76904],[76.98446,31.769],[76.98445,31.76896],[76.98443,31.76892],[76.9844,31.76889],[76.98438,31.76886],[76.98437,31.76881],[76.98437,31.76878],[76.98436,31.76874],[76.98431,31.76872],[76.98427,31.7687],[76.98427,31.76866],[76.98427,31.76861],[76.98426,31.76858],[76.98426,31.76853],[76.98426,31.76849],[76.98426,31.76845],[76.98423,31.76842],[76.98418,31.76843],[76.98412,31.76842],[76.98408,31.76841],[76.98406,31.76837],[76.98408,31.76832],[76.98411,31.76829],[76.98412,31.76824],[76.98411,31.7682],[76.98409,31.76816],[76.98404,31.76816],[76.98401,31.76819],[76.98397,31.76819],[76.98392,31.76821],[76.98388,31.76825],[76.98385,31.76828],[76.98381,31.76826],[76.98377,31.76824],[76.98375,31.7682],[76.98373,31.76816],[76.9837,31.76813],[76.98366,31.76811],[76.98367,31.76806],[76.9837,31.76803],[76.98367,31.768],[76.98361,31.76799],[76.98356,31.76799],[76.98351,31.768],[76.98346,31.76799],[76.98341,31.76799],[76.98338,31.76796],[76.98334,31.76795],[76.98331,31.76792],[76.98331,31.76788],[76.9833,31.76784],[76.98327,31.76781],[76.98322,31.76779],[76.98318,31.76774],[76.98316,31.76771],[76.98315,31.76768],[76.98315,31.76765],[76.98312,31.76762],[76.98309,31.76761],[76.98307,31.76758],[76.98306,31.76755],[76.98301,31.76751],[76.98297,31.76747],[76.98295,31.76744],[76.98292,31.76742],[76.98289,31.76741],[76.98284,31.76745],[76.98278,31.76747],[76.98274,31.76747],[76.98271,31.76746],[76.98268,31.76747],[76.98267,31.7675],[76.98267,31.76753],[76.98268,31.76756],[76.98269,31.76759],[76.98265,31.7676],[76.98263,31.76764],[76.98265,31.76767],[76.98264,31.7677],[76.98267,31.76772],[76.98272,31.76775],[76.98275,31.76777],[76.98279,31.76782],[76.98279,31.76785],[76.98281,31.76788],[76.98286,31.76792],[76.9829,31.76796],[76.98289,31.76801],[76.9829,31.76804],[76.98293,31.76806],[76.98295,31.76809],[76.983,31.76813],[76.98302,31.76816],[76.98304,31.76822],[76.98305,31.76825],[76.98304,31.7683],[76.98301,31.76835],[76.983,31.76838],[76.98299,31.76841],[76.98302,31.76843],[76.98303,31.76848],[76.98304,31.76851],[76.98309,31.76855],[76.9831,31.76858],[76.98306,31.76858],[76.98304,31.76861],[76.98309,31.76864],[76.98309,31.76868],[76.98313,31.76873],[76.98312,31.76876],[76.98314,31.76879],[76.98319,31.76883],[76.98322,31.76886],[76.98325,31.76888],[76.98328,31.76889],[76.98332,31.7689],[76.98336,31.76892],[76.9834,31.76893],[76.98344,31.76894],[76.98347,31.76895],[76.9835,31.76896],[76.98354,31.76897],[76.98359,31.769],[76.98358,31.76904],[76.98355,31.76907],[76.98353,31.7691],[76.98354,31.76913],[76.98358,31.76915],[76.98361,31.76917],[76.98364,31.76919],[76.98367,31.76922],[76.9837,31.76924],[76.98373,31.76927],[76.98375,31.76933],[76.98371,31.76937],[76.98368,31.76939],[76.98365,31.76941],[76.98363,31.76944],[76.98363,31.76948],[76.98365,31.76951],[76.98369,31.76954],[76.98371,31.76957],[76.98374,31.76962],[76.98377,31.76964],[76.9838,31.76966],[76.98381,31.76969],[76.98381,31.76972],[76.98382,31.76976],[76.98384,31.76979],[76.98386,31.76982],[76.98389,31.76984],[76.98391,31.76987],[76.98393,31.7699],[76.98394,31.76995],[76.98399,31.77],[76.98402,31.77003],[76.98405,31.77004],[76.98409,31.77006],[76.98412,31.77007],[76.98415,31.77009],[76.98418,31.77011],[76.98419,31.77014],[76.98419,31.77017],[76.98421,31.77021],[76.98416,31.77022],[76.98413,31.77024],[76.98416,31.77027],[76.98419,31.7703],[76.98423,31.77032],[76.98428,31.77031],[76.98427,31.77035],[76.98427,31.77039],[76.98428,31.77042],[76.98429,31.77045],[76.98432,31.77047],[76.98432,31.7705],[76.98429,31.77054],[76.98431,31.77057],[76.9843,31.77062],[76.98431,31.77065],[76.98428,31.77068],[76.98425,31.7707],[76.98421,31.77068],[76.98418,31.77071],[76.98417,31.77075],[76.98417,31.77079],[76.98418,31.77082],[76.98419,31.77085],[76.98421,31.77088],[76.98427,31.77091],[76.9843,31.77092],[76.98433,31.77095],[76.98435,31.77098],[76.98436,31.77103],[76.98437,31.77107],[76.98437,31.7711],[76.98438,31.77113],[76.98439,31.77116],[76.98436,31.77118],[76.984332,31.771197],[76.98433,31.77125]]}},{"type":"Feature","id":"way-1098957896","properties":{"id":"way-1098957896","cls":"unclassified","name":null,"width_m":4.5,"surface":"paved","stairs":false,"accessible":true,"bridge":false,"tunnel":false,"src":"OpenStreetMap (ODbL)"},"geometry":{"type":"LineString","coordinates":[[76.981292,31.787739],[76.981331,31.787896],[76.981386,31.788184],[76.981512,31.78838],[76.981582,31.788528],[76.981676,31.788715],[76.981767,31.788932],[76.981805,31.789162],[76.981837,31.789281],[76.981864,31.789338],[76.981968,31.789445],[76.98203,31.789499],[76.982065,31.789541],[76.982089,31.789616],[76.982086,31.78967],[76.982062,31.789734],[76.982145,31.78988],[76.982164,31.789992],[76.982159,31.790058],[76.982191,31.790126],[76.982234,31.790254],[76.98225,31.790391],[76.982266,31.790466],[76.982239,31.790592],[76.982188,31.790651],[76.982164,31.790749],[76.982156,31.79081],[76.982172,31.790945],[76.982212,31.791066],[76.98229,31.791157],[76.982314,31.791223],[76.982333,31.791321],[76.982304,31.791376],[76.982236,31.791417],[76.982175,31.791453],[76.98211,31.791503],[76.982057,31.79156],[76.982033,31.791617],[76.982022,31.791813],[76.982025,31.791891],[76.982025,31.791962],[76.981958,31.792051],[76.981842,31.792101],[76.981708,31.79216],[76.981681,31.792306],[76.981574,31.792552],[76.98144,31.792693],[76.981333,31.792812],[76.981263,31.792878],[76.981142,31.792974],[76.981076,31.793033],[76.981031,31.793069],[76.980972,31.793111],[76.980835,31.793239],[76.980781,31.793314],[76.980714,31.793374],[76.980646,31.793402],[76.980539,31.793415],[76.980456,31.793409],[76.980401,31.793391],[76.98034,31.793364],[76.980169,31.793319],[76.980081,31.793358],[76.979947,31.793416],[76.979781,31.793512],[76.979474,31.793592],[76.979389,31.793605],[76.979293,31.793605],[76.97923,31.793583],[76.979226,31.793529],[76.979223,31.793451],[76.979246,31.793293],[76.97922,31.793209],[76.979193,31.793171],[76.979113,31.793122],[76.97903,31.793082],[76.978961,31.793056],[76.978889,31.793062],[76.978826,31.793124],[76.978727,31.793195],[76.978667,31.79323],[76.978594,31.793264],[76.978556,31.793268],[76.978385,31.793291],[76.978255,31.793286],[76.978093,31.793332],[76.977961,31.793351],[76.977777,31.793348],[76.977559,31.793307],[76.977429,31.793252],[76.9773,31.793202],[76.977248,31.79313],[76.977146,31.792977],[76.977005,31.79288],[76.976898,31.792769],[76.976719,31.792626],[76.976652,31.79255],[76.97657,31.792497],[76.976498,31.792488],[76.976438,31.792535],[76.976396,31.792602],[76.976407,31.792683],[76.976438,31.792744],[76.976491,31.792918],[76.976629,31.79306],[76.976686,31.793139],[76.976786,31.793382],[76.976851,31.793706],[76.976904,31.793975],[76.976993,31.794171],[76.977172,31.794431],[76.977304,31.794663],[76.977312,31.794916],[76.977315,31.795062],[76.977347,31.795194],[76.977355,31.795322],[76.977387,31.795543],[76.977352,31.795846],[76.977288,31.796008],[76.977218,31.796099],[76.977124,31.796163],[76.977105,31.796225],[76.977105,31.7963],[76.977178,31.796494],[76.977135,31.796644],[76.977036,31.79674],[76.976888,31.796829],[76.976789,31.796893],[76.976668,31.796975],[76.976572,31.79705],[76.976502,31.797102],[76.976422,31.797114],[76.976354,31.797118],[76.976113,31.797171],[76.975746,31.797134],[76.975577,31.797132],[76.975472,31.797171],[76.975459,31.797235],[76.97548,31.797292],[76.975539,31.797374],[76.975633,31.797447],[76.976014,31.797707],[76.976336,31.797921],[76.97684,31.798131],[76.977239,31.798283],[76.977524,31.798315],[76.977626,31.798302],[76.977755,31.798222],[76.977878,31.798121],[76.977975,31.79808],[76.978076,31.798078],[76.978213,31.79808],[76.978299,31.798067],[76.978412,31.798033],[76.978463,31.798028],[76.978581,31.798049],[76.979045,31.798327],[76.979281,31.798406],[76.979442,31.798431],[76.979597,31.79852],[76.979707,31.798612],[76.979761,31.79871],[76.979785,31.798776],[76.979817,31.798819],[76.980048,31.798956],[76.980249,31.799052],[76.98027,31.799129],[76.98027,31.799209],[76.980284,31.799323],[76.980311,31.79938],[76.980477,31.799542],[76.980772,31.799754],[76.980815,31.79987],[76.980858,31.799984],[76.98093,31.800077],[76.981003,31.800178],[76.981279,31.800424],[76.981579,31.800729],[76.981754,31.80106],[76.982041,31.801219],[76.982239,31.801322],[76.982317,31.801463],[76.982553,31.801755],[76.98265,31.801778],[76.982743,31.801776],[76.982848,31.801735],[76.98306,31.801627],[76.983151,31.801507],[76.983283,31.801393],[76.983495,31.801331],[76.983701,31.801361],[76.983924,31.801397],[76.983991,31.801427],[76.984031,31.801486],[76.984031,31.801525],[76.983988,31.801564],[76.983889,31.801618],[76.983808,31.80165],[76.983645,31.801771],[76.983556,31.801958],[76.983411,31.802163],[76.98335,31.802232],[76.983293,31.802323],[76.983208,31.802393],[76.983105,31.802443],[76.983004,31.802498],[76.982912,31.80253],[76.982797,31.802544],[76.982679,31.80256],[76.982585,31.802585],[76.982521,31.802617],[76.982456,31.802678],[76.982405,31.802731],[76.982328,31.802911],[76.98221,31.803016],[76.982094,31.80305],[76.982014,31.803084],[76.981958,31.803134],[76.981901,31.803193],[76.981869,31.80326],[76.981891,31.803351],[76.98192,31.80341],[76.981974,31.803517],[76.982065,31.803595],[76.982164,31.803704],[76.982118,31.80385],[76.982062,31.803914],[76.981979,31.803946],[76.981856,31.803962],[76.981743,31.803964],[76.981671,31.803973],[76.981633,31.804014],[76.981617,31.804085],[76.98163,31.804112],[76.981681,31.804171],[76.981807,31.804313],[76.981987,31.804568],[76.982143,31.804739],[76.982236,31.804782],[76.982349,31.804789],[76.982414,31.804789],[76.982521,31.804819],[76.982596,31.804887],[76.982647,31.804978],[76.982773,31.805158],[76.982786,31.805263],[76.982701,31.805334],[76.982604,31.805341],[76.982499,31.805318],[76.9824,31.805277],[76.982304,31.805231],[76.982207,31.805218],[76.982102,31.805238],[76.981958,31.805288],[76.981831,31.805293],[76.98174,31.805268],[76.981432,31.805389],[76.981386,31.805494],[76.981384,31.805573],[76.981394,31.805651],[76.981555,31.805968],[76.981641,31.806205],[76.981673,31.806289],[76.981679,31.806364],[76.981555,31.806403],[76.981453,31.806369],[76.981319,31.806294],[76.981263,31.806241],[76.981196,31.806168],[76.981088,31.806116],[76.981005,31.806082],[76.980901,31.806097],[76.980836,31.806129],[76.980785,31.806193],[76.980756,31.806243],[76.980772,31.806424],[76.980743,31.806615],[76.980632,31.806886],[76.980565,31.807094],[76.98045,31.807246],[76.980362,31.807422],[76.980354,31.807679],[76.980405,31.807914],[76.980405,31.808021],[76.980405,31.808147],[76.980345,31.808217],[76.980257,31.808256],[76.980072,31.808361],[76.980002,31.808527],[76.980053,31.808666],[76.980045,31.808739],[76.980024,31.808801],[76.979981,31.808885],[76.979927,31.808963],[76.979637,31.809111],[76.979431,31.809309],[76.979359,31.809425],[76.979283,31.809628],[76.979133,31.809815],[76.979114,31.810036],[76.97912,31.810093],[76.979181,31.810178],[76.979232,31.810212],[76.979246,31.810269],[76.979208,31.810492],[76.979259,31.810627],[76.979364,31.810722],[76.979412,31.810793],[76.979442,31.810864],[76.979447,31.810886],[76.979474,31.811105],[76.979493,31.81134],[76.979584,31.811652],[76.97964,31.811837],[76.979648,31.812006],[76.979739,31.812181],[76.979747,31.812297],[76.979753,31.812373],[76.97978,31.812452],[76.979788,31.812534],[76.979696,31.812619],[76.979656,31.812699],[76.979702,31.812936],[76.979691,31.813066],[76.979616,31.813152],[76.9796,31.813243],[76.9796,31.813332],[76.979603,31.813394],[76.979605,31.813485],[76.979633,31.81362],[76.979717,31.813781],[76.979824,31.814026],[76.979977,31.814236],[76.980002,31.81434],[76.980087,31.814526],[76.980197,31.814688],[76.980287,31.814753],[76.980343,31.814769],[76.980443,31.81476],[76.980532,31.814726],[76.980759,31.814672],[76.980871,31.814675],[76.980944,31.814691],[76.981007,31.814725],[76.981078,31.814749],[76.981219,31.814803],[76.981266,31.814852],[76.981232,31.814929],[76.981166,31.814964],[76.981084,31.815004],[76.980983,31.815047],[76.980908,31.815092],[76.980784,31.815189],[76.98071,31.815242],[76.980529,31.815303],[76.980418,31.815305],[76.980321,31.815324],[76.980253,31.815348],[76.980174,31.815336],[76.980091,31.815298],[76.979962,31.815246],[76.979878,31.815278],[76.979867,31.815314],[76.979884,31.815365],[76.979876,31.815549],[76.979873,31.815729],[76.979847,31.815879],[76.979825,31.81595],[76.979813,31.815993],[76.979882,31.816116],[76.979962,31.816256],[76.979987,31.816318],[76.979965,31.816383],[76.97991,31.816433],[76.979867,31.816473],[76.979836,31.816519],[76.979828,31.816612],[76.979806,31.8168],[76.979762,31.816891],[76.979711,31.816952],[76.979637,31.816995],[76.979452,31.817149],[76.979263,31.817275],[76.979029,31.81737],[76.978797,31.817423],[76.97866,31.817462],[76.978507,31.817527],[76.978327,31.817639],[76.977938,31.817835],[76.977784,31.817899],[76.977661,31.817893],[76.977477,31.817933],[76.977312,31.817992],[76.977197,31.817981],[76.977103,31.817966],[76.977017,31.81796],[76.976918,31.817976],[76.976863,31.818035],[76.97684,31.818112],[76.976766,31.818319],[76.976648,31.81858],[76.97658,31.818695],[76.976495,31.81883],[76.976503,31.818931],[76.976529,31.818991],[76.976535,31.819034],[76.976517,31.819094],[76.976459,31.819163],[76.976365,31.819216],[76.976224,31.81931],[76.976161,31.819391],[76.976046,31.819614],[76.975986,31.819736],[76.975945,31.819809],[76.975906,31.819845],[76.975896,31.819869],[76.975878,31.819984],[76.975874,31.820058],[76.975833,31.82008],[76.975767,31.820107],[76.975646,31.820188],[76.975573,31.820273],[76.975515,31.820343],[76.97551,31.820392],[76.975543,31.82046],[76.975598,31.820502],[76.975681,31.820572],[76.975658,31.82063],[76.975606,31.820664],[76.975548,31.820711],[76.97545,31.820774],[76.975401,31.820799],[76.975373,31.820846],[76.975367,31.820864],[76.975366,31.820991],[76.975357,31.821128],[76.975319,31.821181],[76.975251,31.821199],[76.975205,31.821189],[76.975147,31.821137],[76.974931,31.82098],[76.974859,31.821017],[76.974801,31.821075],[76.974756,31.821106],[76.974704,31.821143],[76.974544,31.821235],[76.974489,31.821281],[76.974463,31.821334],[76.97445,31.821385],[76.974451,31.821528],[76.974474,31.821644],[76.974474,31.821697],[76.974455,31.82174],[76.974429,31.821779],[76.974422,31.821823],[76.974449,31.821878],[76.974509,31.821966],[76.974509,31.822061],[76.974493,31.8221],[76.974433,31.822143],[76.97437,31.82216],[76.974164,31.822102],[76.974005,31.822067],[76.973932,31.822025],[76.973853,31.821929],[76.973788,31.821888],[76.973498,31.821874],[76.973112,31.821865],[76.972889,31.821869],[76.972733,31.821871],[76.972665,31.8219],[76.972559,31.821931],[76.972386,31.821982],[76.97228,31.822053],[76.972251,31.822078],[76.972068,31.822211],[76.972005,31.822299],[76.971952,31.822374],[76.971882,31.822424],[76.971809,31.822441],[76.971736,31.822461],[76.971665,31.822483],[76.971577,31.822588],[76.971504,31.822631],[76.971404,31.822637],[76.971327,31.822625],[76.971264,31.822581],[76.971199,31.822551],[76.970986,31.822521],[76.970742,31.822518],[76.970554,31.822657],[76.97042,31.822671],[76.970329,31.822658],[76.970207,31.822636],[76.970146,31.822604],[76.970103,31.822556],[76.970063,31.822484],[76.970039,31.822417],[76.969948,31.822308],[76.969839,31.822257],[76.969701,31.822248],[76.969564,31.822244],[76.969489,31.822224],[76.969433,31.822205],[76.969269,31.822208],[76.969159,31.82224],[76.969096,31.822288],[76.968968,31.822326],[76.968855,31.822329],[76.96856,31.822319],[76.96842,31.822325],[76.968351,31.82237],[76.968316,31.822408],[76.968306,31.822452],[76.968298,31.822566],[76.968315,31.822651],[76.968355,31.822733],[76.968388,31.822802],[76.968419,31.822928],[76.968347,31.823014],[76.96829,31.823069],[76.968198,31.823117],[76.968029,31.823221],[76.967989,31.823274],[76.967994,31.823333],[76.968053,31.823369],[76.968241,31.823399],[76.968388,31.823411],[76.968549,31.82342],[76.968646,31.82344],[76.968691,31.823463],[76.968656,31.823584],[76.968471,31.823686],[76.968324,31.823841],[76.968262,31.823923],[76.967962,31.824149],[76.967828,31.82429],[76.967702,31.824422],[76.967605,31.824518],[76.967503,31.824607],[76.967471,31.824673],[76.967452,31.824741],[76.967425,31.825006],[76.967407,31.825174],[76.967321,31.82535],[76.967259,31.825457],[76.967042,31.825699],[76.966948,31.825929],[76.966934,31.826148],[76.966913,31.826312],[76.966945,31.826448],[76.967015,31.826701],[76.967154,31.826831],[76.967278,31.827],[76.96731,31.827105],[76.967342,31.827169],[76.967474,31.827216],[76.967594,31.82723],[76.96771,31.827267],[76.967812,31.827321],[76.967846,31.827399],[76.967983,31.82754],[76.968284,31.827834],[76.968372,31.82793],[76.968471,31.827955],[76.968678,31.828149],[76.968769,31.828171],[76.968965,31.828114],[76.969056,31.828108],[76.969096,31.828219],[76.969172,31.828306],[76.9693,31.828367],[76.969346,31.828443],[76.969367,31.828515],[76.96967,31.828664],[76.969807,31.82867],[76.969901,31.828648],[76.969989,31.828652],[76.970024,31.828698],[76.970376,31.828686],[76.970421,31.82885],[76.970488,31.828983],[76.970577,31.829092],[76.970679,31.829163],[76.970904,31.829249],[76.971009,31.829306],[76.971068,31.829388],[76.971124,31.829498],[76.97117,31.829598],[76.971248,31.829714],[76.971288,31.829899],[76.971274,31.829997],[76.971255,31.830058],[76.971317,31.830202],[76.971382,31.830231],[76.971502,31.830247],[76.971615,31.830254],[76.971746,31.830188],[76.971864,31.830083],[76.971907,31.830026],[76.972023,31.829845],[76.971967,31.829656],[76.972233,31.829435],[76.972664,31.829339],[76.973345,31.829245],[76.973929,31.829324],[76.974614,31.829269],[76.974654,31.829335]]}},{"type":"Feature","id":"way-1369713217","properties":{"id":"way-1369713217","cls":"unclassified","name":null,"width_m":4.5,"surface":"paved","stairs":false,"accessible":true,"bridge":false,"tunnel":false,"src":"OpenStreetMap (ODbL)"},"geometry":{"type":"LineString","coordinates":[[77.000747,31.783611],[77.000822,31.783648],[77.001011,31.783693],[77.001329,31.78372],[77.001531,31.783707],[77.001631,31.7837],[77.001692,31.783723],[77.001699,31.783766],[77.001667,31.783798],[77.001491,31.783809],[77.001038,31.783825],[77.00087,31.783837],[77.000832,31.783882],[77.000813,31.783948],[77.000849,31.784007],[77.000889,31.784063]]}},{"type":"Feature","id":"way-1454085357","properties":{"id":"way-1454085357","cls":"secondary","name":"Mandi-Bajaura Road","width_m":6.5,"surface":"asphalt","stairs":false,"accessible":true,"bridge":false,"tunnel":false,"src":"OpenStreetMap (ODbL)"},"geometry":{"type":"LineString","coordinates":[[76.982049,31.77558],[76.98198,31.775423],[76.981616,31.77487],[76.981528,31.774688],[76.981451,31.774467],[76.980944,31.773768],[76.980851,31.773664],[76.980774,31.773572],[76.98072,31.773456],[76.980663,31.773349],[76.980572,31.773238],[76.980472,31.773154],[76.980349,31.773057],[76.980082,31.772715],[76.979875,31.772234],[76.979662,31.771968],[76.979469,31.771779],[76.978943,31.771337],[76.978415,31.771057],[76.978344,31.770887],[76.978126,31.770731],[76.977919,31.770619],[76.977671,31.770403],[76.9776,31.770345],[76.977311,31.770308],[76.976567,31.770294],[76.976121,31.770157],[76.975995,31.770134],[76.975846,31.770127],[76.975669,31.770148],[76.975472,31.770181],[76.97497,31.77026],[76.974903,31.770269],[76.97482,31.770276],[76.974744,31.770261],[76.974687,31.770222],[76.974653,31.770178],[76.974632,31.770111],[76.974614,31.770022],[76.974602,31.769885],[76.974595,31.769694],[76.974867,31.769023],[76.974682,31.768855],[76.97455,31.768747],[76.974508,31.768695],[76.974489,31.768633],[76.974491,31.768579],[76.97476,31.768035],[76.974657,31.767684],[76.974513,31.767471],[76.974465,31.767425],[76.974402,31.76738],[76.974289,31.767327],[76.97423,31.767287],[76.974193,31.767231],[76.974132,31.767114],[76.974085,31.76707],[76.974024,31.767018],[76.973884,31.766931],[76.973857,31.76689],[76.973839,31.766835],[76.97384,31.766772],[76.973858,31.766731],[76.973889,31.76669],[76.973921,31.766647],[76.974256,31.766437],[76.974466,31.766191],[76.974559,31.765859],[76.974517,31.76552],[76.974512,31.765262],[76.974817,31.765209],[76.975081,31.765101],[76.97563,31.764576],[76.975729,31.764177],[76.975788,31.763994],[76.97602,31.76379],[76.976333,31.763652],[76.976599,31.763432],[76.976516,31.763274],[76.976209,31.76302],[76.975768,31.762741],[76.975503,31.762579],[76.975288,31.762502],[76.974956,31.762424],[76.974658,31.762286],[76.97457,31.762206],[76.974464,31.761601],[76.974301,31.761423],[76.974252,31.761316],[76.974249,31.761193],[76.974268,31.761043],[76.974317,31.76072],[76.974518,31.760501],[76.974595,31.760239],[76.974474,31.760008],[76.974372,31.759849],[76.974341,31.759571],[76.974218,31.759398],[76.974132,31.759338],[76.974038,31.759284],[76.973744,31.759114],[76.973333,31.758973],[76.972975,31.758735],[76.972725,31.758445],[76.972612,31.758341],[76.972452,31.758289],[76.97218,31.758199],[76.971988,31.758198],[76.971917,31.758207],[76.971846,31.758186],[76.971789,31.758136],[76.971762,31.758061],[76.971741,31.757981],[76.971677,31.757741],[76.971557,31.757294],[76.971472,31.757224],[76.971148,31.75715],[76.970955,31.757052],[76.970549,31.756518],[76.970568,31.75628],[76.970765,31.756038],[76.970727,31.755753],[76.97056,31.755436],[76.970251,31.755079],[76.969762,31.754897],[76.969442,31.754756],[76.969048,31.754627],[76.96878,31.754716],[76.96862,31.754891],[76.968521,31.755124],[76.968468,31.75552]]}},{"type":"Feature","id":"way-1454454525","properties":{"id":"way-1454454525","cls":"tertiary_link","name":"North Campus - South Campus Road","width_m":5.5,"surface":"paved","stairs":false,"accessible":true,"bridge":false,"tunnel":false,"src":"OpenStreetMap (ODbL)"},"geometry":{"type":"LineString","coordinates":[[76.995209,31.77954],[76.995055,31.779374],[76.99493,31.779283],[76.994857,31.779225],[76.994838,31.779177],[76.99483,31.779105],[76.994766,31.779044],[76.994584,31.779014],[76.994473,31.77903],[76.994349,31.779159],[76.99424,31.779212],[76.994097,31.779188],[76.993967,31.779141],[76.993822,31.779054],[76.993667,31.778978],[76.99342,31.778904],[76.993128,31.778823],[76.992786,31.778764],[76.992427,31.778671],[76.992189,31.778633],[76.992074,31.778628],[76.991708,31.778536],[76.991533,31.77852],[76.991369,31.778506],[76.991204,31.778501],[76.991048,31.778516],[76.99096,31.778534],[76.990824,31.778504],[76.990711,31.778471],[76.990659,31.778418],[76.990653,31.778361],[76.990713,31.778243],[76.990788,31.778139],[76.990844,31.778051],[76.990906,31.777968],[76.990992,31.777883],[76.991083,31.777802],[76.991184,31.777771],[76.991305,31.777765],[76.991432,31.777752],[76.991546,31.777736],[76.991656,31.777666],[76.991728,31.777591],[76.99181,31.777504],[76.9919,31.777389],[76.991969,31.777289],[76.99203,31.777213],[76.992056,31.777143],[76.992061,31.77706],[76.992017,31.776993],[76.991987,31.776904],[76.991978,31.776831],[76.992,31.776757],[76.992029,31.776694],[76.992052,31.776608],[76.992025,31.776536],[76.99196,31.776456],[76.991898,31.776382],[76.991849,31.776315],[76.991807,31.776256],[76.991772,31.776207],[76.991737,31.776179],[76.991679,31.776121],[76.991595,31.776057],[76.991499,31.775999],[76.991349,31.775934],[76.991273,31.775887],[76.991172,31.775833],[76.991034,31.775761],[76.990906,31.775694],[76.99076,31.775624],[76.990671,31.77559],[76.990571,31.775554],[76.990493,31.775543],[76.990406,31.775519],[76.990322,31.77547],[76.990246,31.775391],[76.990213,31.775296],[76.990241,31.775209],[76.990298,31.775071],[76.990379,31.774892],[76.990386,31.774826],[76.990376,31.774772],[76.990336,31.77471],[76.990233,31.774656],[76.990148,31.77465],[76.990058,31.774665],[76.98992,31.77471],[76.989738,31.774761],[76.989625,31.774818],[76.989495,31.774867],[76.989414,31.7749],[76.989318,31.77494],[76.989207,31.774967],[76.989081,31.775018],[76.989019,31.775052],[76.988868,31.77523],[76.988806,31.775306],[76.988538,31.775337],[76.988468,31.775323],[76.988286,31.775253],[76.988167,31.775205],[76.988025,31.775132],[76.987936,31.775048],[76.987873,31.774972],[76.9878,31.774907],[76.98778,31.77482],[76.987681,31.774679],[76.987622,31.774584],[76.987549,31.774477],[76.987367,31.774252],[76.987311,31.774156],[76.987238,31.774095],[76.987149,31.774061],[76.98706,31.77405],[76.986941,31.774047],[76.986891,31.774044],[76.986851,31.774027],[76.986808,31.774005],[76.986662,31.773893],[76.986553,31.773756],[76.986476,31.773626],[76.986429,31.773586],[76.986377,31.773443],[76.986303,31.773349],[76.986224,31.773264],[76.986162,31.773179],[76.986112,31.773089],[76.98608,31.773049],[76.986044,31.773021],[76.98604,31.772958],[76.986029,31.772929],[76.985992,31.772884],[76.985964,31.772843],[76.985948,31.772801],[76.985951,31.772753],[76.985975,31.772684],[76.985994,31.772642],[76.986012,31.772599],[76.986047,31.772536],[76.986084,31.772493],[76.986121,31.772436],[76.986118,31.772403],[76.986116,31.772375],[76.986097,31.772356],[76.98607,31.77234],[76.986042,31.772329],[76.985944,31.772345],[76.985831,31.772369],[76.98567,31.772371],[76.985558,31.772316],[76.985486,31.77226],[76.985419,31.772216],[76.98536,31.77218],[76.98531,31.772178],[76.985273,31.772192],[76.985242,31.772219],[76.985238,31.772262],[76.985256,31.772297],[76.985323,31.772347],[76.985388,31.77239],[76.985447,31.772423],[76.985506,31.772473],[76.985558,31.77254],[76.985606,31.772608],[76.985624,31.772669],[76.985622,31.772731],[76.985598,31.772769],[76.98555,31.77281],[76.985491,31.772838],[76.985454,31.772847],[76.985419,31.772875],[76.985366,31.772864],[76.985346,31.772828],[76.985336,31.772811],[76.985273,31.772808],[76.985223,31.772812],[76.985175,31.772806],[76.985123,31.772808],[76.985081,31.772821],[76.985044,31.772842],[76.98503,31.772855],[76.984993,31.772879]]}},{"type":"Feature","id":"way-1454596545","properties":{"id":"way-1454596545","cls":"tertiary","name":null,"width_m":6.0,"surface":"asphalt","stairs":false,"accessible":true,"bridge":false,"tunnel":false,"src":"OpenStreetMap (ODbL)"},"geometry":{"type":"LineString","coordinates":[[76.983939,31.780064],[76.983916,31.780065],[76.983886,31.780059],[76.983865,31.780048],[76.983843,31.780028],[76.983812,31.779999],[76.983782,31.77996],[76.983702,31.779787],[76.983625,31.779626],[76.982844,31.778611],[76.982478,31.777869],[76.982426,31.777614],[76.982394,31.777379],[76.982407,31.777144],[76.982436,31.776924],[76.982419,31.776715],[76.982049,31.77558]]}},{"type":"Feature","id":"way-1454596546","properties":{"id":"way-1454596546","cls":"tertiary","name":null,"width_m":6.0,"surface":"asphalt","stairs":false,"accessible":true,"bridge":false,"tunnel":false,"src":"OpenStreetMap (ODbL)"},"geometry":{"type":"LineString","coordinates":[[76.983358,31.775835],[76.983269,31.775915],[76.983223,31.776034],[76.983199,31.776649],[76.98326,31.776876],[76.984685,31.779484],[76.984755,31.779694],[76.984692,31.779736]]}},{"type":"Feature","id":"way-1454596547","properties":{"id":"way-1454596547","cls":"secondary","name":"Mandi-Bajaura Road","width_m":6.5,"surface":"asphalt","stairs":false,"accessible":true,"bridge":true,"tunnel":false,"src":"OpenStreetMap (ODbL)"},"geometry":{"type":"LineString","coordinates":[[76.982049,31.77558],[76.982357,31.775598],[76.982809,31.775681],[76.983358,31.775835]]}}]}